ec_id,name,premises,address,lat,lon,state,wheelchair_access
,Albany PCYC,,"77 Sanford Road, CENTENNIAL PARK WA 6330",-35.01046000,117.88208000,WA,Wheelchair Access
,Albany Primary School,,"Suffolk Street, MOUNT CLARENCE WA 6330",-35.01821000,117.89078000,WA,Wheelchair Access
,Albany Sea Rescue Hall,,"Swarbrick Street, EMU POINT WA 6330",-34.99427000,117.94353000,WA,
,Albany Senior Citizens Centre,,"122 Grey Street West, ALBANY WA 6330",-35.02377000,117.88280000,WA,Wheelchair Access
,Albany Surf Life Saving Club,,"4 Flinders Parade, MIDDLETON BEACH WA 6330",-35.02421000,117.91597000,WA,Wheelchair Access
,Elleker Hall,,"Hassell Street, ELLEKER WA 6330",-35.00847000,117.72988000,WA,
,Flinders Park Primary School,,"Yatana Road, BAYONET HEAD WA 6330",-34.97843000,117.93083000,WA,Wheelchair Access
,Great Southern Grammar,,"244 Nanarup Road, NANARUP WA 6330",-34.94764000,117.97064000,WA,Wheelchair Access
,King River Hall,,"1520 Millbrook Road, KING RIVER WA 6330",-34.93391000,117.89681000,WA,
,Little Grove Primary School,,"33 Gordon Street, LITTLE GROVE WA 6330",-35.06664500,117.86726700,WA,Wheelchair Access
,Mount Lockyer Primary School,,"Humphreys Street, LOCKYER WA 6330",-35.00205000,117.85608000,WA,
,Napier Hall,,"2151 Chester Pass Road, NAPIER WA 6330",-34.83330000,117.96080000,WA,
,North Albany Senior High School,,"47 Anson Road, ORANA WA 6330",-34.99085000,117.86263000,WA,Wheelchair Access
,Redmond Hall,,"Redmond-Hay River Road, REDMOND WA 6327",-34.88647000,117.69151000,WA,
,Spencer Park Primary School,,"46 Hardie Road, SPENCER PARK WA 6330",-35.00519000,117.90087000,WA,
,Wellstead Community Resource Centre,,"49 Windsor Road, WELLSTEAD WA 6328",-34.49298000,118.60681000,WA,
,Yakamia Primary School,,"26 Beaufort Road, YAKAMIA WA 6330",-35.00250000,117.87299000,WA,
,Youngs Siding Hall,,"29 Station Street, YOUNGS SIDING WA 6330",-35.01241300,117.52228600,WA,
,Armadale Primary School,,"1 Carradine Road, ARMADALE WA 6112",-32.14763000,116.02618000,WA,
,Armadale Senior High School,,"169 South Western Highway, ARMADALE WA 6112",-32.15842300,116.01359200,WA,Wheelchair Access
,Australian Christian College Darling Downs,,"10 Ninth Road, BROOKDALE WA 6112",-32.17468100,116.00429400,WA,Wheelchair Access
,Cecil Andrews Senior High School,,"23 Seville Drive, SEVILLE GROVE WA 6112",-32.14080000,115.99240000,WA,
,Challis Primary School,,"40 Braemore Street, ARMADALE WA 6112",-32.13903000,115.99975000,WA,
,Dale Christian School,,"150 Forrest Road, ARMADALE WA 6112",-32.15932600,115.99873600,WA,
,Free Reformed Church,,"84 Fifth Road, ARMADALE WA 6112",-32.14992000,116.00490000,WA,Wheelchair Access
,Grovelands Primary School,,"14 Grovelands Drive, CAMILLO WA 6111",-32.11952000,115.99868000,WA,
,Kelmscott Primary School,,"River Road, KELMSCOTT WA 6111",-32.11959000,116.02049000,WA,
,Kelmscott Senior High School,,"50 Third Avenue, KELMSCOTT WA 6111",-32.12035000,116.00989000,WA,Wheelchair Access
,Kelmscott Voting Centre,,"4/2944 Albany Highway, KELMSCOTT WA 6111",-32.12225200,116.01838300,WA,Wheelchair Access
,Kingsley Primary School,,"11 Lathwell Street, ARMADALE WA 6112",-32.13432000,116.01545000,WA,Wheelchair Access
,Westfield Park Primary School,,"Hemingway Drive, WESTFIELD WA 6111",-32.11032000,116.00533000,WA,Wheelchair Access
,Balcatta Primary School,,"387 Main Street, BALCATTA WA 6021",-31.88110000,115.82798000,WA,
,Balcatta Senior High School,,"Amelia Street , BALCATTA WA 6021",-31.87603000,115.81320000,WA,Wheelchair Access
,Osborne Park Community Centre,,"11 Royal Street, TUART HILL WA 6060",-31.89629000,115.82953000,WA,Wheelchair Access
,Osborne Primary School,,"155 Albert Street, OSBORNE PARK WA 6017",-31.89978000,115.82533000,WA,
,St Denis School,,"2 Orchid Street, JOONDANNA WA 6060",-31.90999000,115.84410000,WA,
,Takari Primary School,,"5 Rickman Street, BALCATTA WA 6021",-31.86981000,115.82153000,WA,
,Tuart Hill Primary School,,"Banksia Street, TUART HILL WA 6060",-31.90123800,115.84013100,WA,Wheelchair Access
,Westminster Primary School,,"30 Marloo Road, WESTMINSTER WA 6061",-31.86963100,115.83815700,WA,Wheelchair Access
,Baldivis Gardens Primary School,,"1 Nadine Promenade, BALDIVIS WA 6171",-32.30082300,115.81006200,WA,Wheelchair Access
,Baldivis Primary School,,"214 Fifty Road, BALDIVIS WA 6171",-32.30767600,115.81767000,WA,
,John Wellard Community Centre,,"Cnr Runnymede Gate and The Strand, WELLARD WA 6170",-32.26240200,115.81553500,WA,Wheelchair Access
,Makybe Rise Primary School,,"Makybe Drive, BALDIVIS WA 6171",-32.34505300,115.81763500,WA,Wheelchair Access
,Rivergums Primary School,,"1 Avoca Chase, BALDIVIS WA 6171",-32.33600000,115.82991000,WA,Wheelchair Access
,Sheoak Grove Primary School,,"Nyilla Approach, BALDIVIS WA 6171",-32.32388400,115.82192300,WA,Wheelchair Access
,South Coast Baptist College,,"30 Gnangara Drive, WAIKIKI WA 6169",-32.31479000,115.75694000,WA,Wheelchair Access
,Tranby College,,"17 Tranby Drive, BALDIVIS WA 6171",-32.34053000,115.80156000,WA,Wheelchair Access
,Tuart Rise Primary School,,"31 Kempeana Way, BALDIVIS WA 6171",-32.35404400,115.81414600,WA,Wheelchair Access
,Waikiki Primary School,,"Arnside Bend, WAIKIKI WA 6169",-32.31958600,115.76233300,WA,Wheelchair Access
,Wellard Primary School,,"25 Breccia Parade, WELLARD WA 6170",-32.26223800,115.84695900,WA,Wheelchair Access
,Anzac Terrace Primary School,,"176 Anzac Terrace, BASSENDEAN WA 6054",-31.89768000,115.93692000,WA,
,Bassendean Primary School,,"70 West Road, BASSENDEAN WA 6054",-31.90770500,115.95384300,WA,Wheelchair Access
,Beechboro Primary School,,"20 King Road, BEECHBORO WA 6063",-31.86847000,115.93609000,WA,Wheelchair Access
,Cracovia Club,,"375 Marshall Road, BEECHBORO WA 6063",-31.85587000,115.93375000,WA,Wheelchair Access
,Cyril Jackson Senior Campus,,"53 Reid Street, ASHFIELD WA 6054",-31.91291000,115.94246500,WA,
,East Beechboro Primary School,,"Brockmill Avenue, BEECHBORO WA 6063",-31.87285000,115.95089800,WA,Wheelchair Access
,Eden Hill Primary School,,"83 A Ivanhoe Street, EDEN HILL WA 6054",-31.89300400,115.94596000,WA,Wheelchair Access
,Hampton Senior High School,,"72 Morley Drive East, MORLEY WA 6062",-31.89010000,115.92653000,WA,Wheelchair Access
,Lockridge Primary School,,"48 Rosher Road, LOCKRIDGE WA 6054",-31.88315000,115.95118000,WA,Wheelchair Access
,Swan Active Beechboro,,"332 Benara Road, BEECHBORO WA 6063",-31.87481800,115.93980800,WA,Wheelchair Access
,Applecross Primary School,,"65 Kintail Road, APPLECROSS WA 6153",-32.01127000,115.83897000,WA,Wheelchair Access
,Applecross Voting Centre,,"Shop 4-6/890 Canning Highway, APPLECROSS WA 6153",-32.01305800,115.84756100,WA,Wheelchair Access
,Ardross Primary School,,"46 Links Road, ARDROSS WA 6153",-32.02740000,115.83382000,WA,
,Bateman Primary School,,"2 Bartling Crescent, BATEMAN WA 6150",-32.05127000,115.84548000,WA,
,Booragoon Primary School,,"10 Clements Road, BOORAGOON WA 6154",-32.03481000,115.82626000,WA,
,Brentwood Primary School,,"2 Dawson Road, BRENTWOOD WA 6153",-32.04172000,115.84764000,WA,Wheelchair Access
,Corpus Christi College,,"50 Murdoch Drive, BATEMAN WA 6150",-32.05664000,115.84190000,WA,Wheelchair Access
,Kardinya Primary School,,"Ochiltree Way, KARDINYA WA 6163",-32.06204800,115.82301800,WA,Wheelchair Access
,Mount Pleasant Baptist Church,,"497 Marmion Street, BOORAGOON WA 6154",-32.04040900,115.82501100,WA,Wheelchair Access
,Mount Pleasant Primary School,,"29 Queens Road, MOUNT PLEASANT WA 6153",-32.02984200,115.84594600,WA,Wheelchair Access
,St Benedict's Primary School,,"70 Alness Street, ARDROSS WA 6153",-32.01863000,115.83894000,WA,Wheelchair Access
,Winthrop Primary School,,"70-80 Jackson Avenue, WINTHROP WA 6150",-32.05488000,115.83353000,WA,
,Belmont City College,,"106 Fisher Street, BELMONT WA 6104",-31.95806000,115.93413000,WA,Wheelchair Access
,Belmont Park Tennis Club,,"Cnr Robinson Avenue and Scott Street , CLOVERDALE WA 6105",-31.97187000,115.94483000,WA,Wheelchair Access
,Belmont Primary School,,"213 Great Eastern Highway, BELMONT WA 6104",-31.94426000,115.92270000,WA,Wheelchair Access
,Belmont Voting Centre,,"222 Belmont Avenue, CLOVERDALE WA 6105",-31.96553300,115.93290500,WA,
,Carlisle Primary School,,"1 Wright Street, KEWDALE WA 6105",-31.97346000,115.92221000,WA,Wheelchair Access
,Hazelmere Community Hall,,"Bushmead Road, HAZELMERE WA 6055",-31.90257200,115.99421800,WA,Wheelchair Access
,Kewdale Primary School,,"264 Kew Street, KEWDALE WA 6105",-31.97528000,115.94398000,WA,Wheelchair Access
,Nations Church,,"240 Epsom Avenue, BELMONT WA 6104",-31.94864100,115.94624400,WA,Wheelchair Access
,Redcliffe Primary School,,"62 Kanowna Avenue, REDCLIFFE WA 6104",-31.93521000,115.94526000,WA,Wheelchair Access
,St Augustine's School,,"34 Gladstone Road, RIVERVALE WA 6103",-31.95988200,115.90647500,WA,Wheelchair Access
,Attadale Primary School,,"Wichmann Road, ATTADALE WA 6156",-32.02521000,115.80181000,WA,Wheelchair Access
,Bicton Primary School,,"View Terrace, BICTON WA 6157",-32.03289000,115.78685300,WA,Wheelchair Access
,East Fremantle Primary School,,"8 Forrest Street, EAST FREMANTLE WA 6158",-32.04824000,115.75961000,WA,
,Melville Primary School,,"70 Curtis Road, MELVILLE WA 6156",-32.03919000,115.80693000,WA,Wheelchair Access
,Melville Recreation Centre,,"431 Canning Highway, MELVILLE WA 6156",-32.03439000,115.79504000,WA,Wheelchair Access
,Melville Senior High School,,"18 Potts Street, MELVILLE WA 6156",-32.04600000,115.80444000,WA,Wheelchair Access
,Palmyra Primary School,,"60 McKimmie Road, PALMYRA WA 6157",-32.04548000,115.78549000,WA,Wheelchair Access
,Richmond Primary School,,"37 Windsor Road, EAST FREMANTLE WA 6158",-32.03630000,115.77026000,WA,
,St Peter's Anglican Church Hall,,"2 Hammad Street, PALMYRA WA 6157",-32.03942000,115.77693000,WA,
,Tricolore Community Centre,,"Wauhop Road, EAST FREMANTLE WA 6158",-32.02812800,115.76828200,WA,
,Adam Road Primary School,,"Hotchin Street, SOUTH BUNBURY WA 6230",-33.35792900,115.63401100,WA,Wheelchair Access
,Bunbury Catholic College,,"Lot 4 Rodsted Street, EAST BUNBURY WA 6230",-33.34337000,115.66183000,WA,Wheelchair Access
,Bunbury Pre-Primary Centre,,"2-18 Lovegrove Avenue, BUNBURY WA 6230",-33.33316100,115.63779800,WA,Wheelchair Access
,Bunbury Voting Centre,,"Homemaker Centre Bunbury, Unit E2 Warehouse Street, BUNBURY WA 6230",-33.333634,115.647413,WA,Wheelchair Access
,Carey Park Primary School,,"Ecclestone Street , CAREY PARK WA 6230",-33.34900000,115.65088000,WA,Wheelchair Access
,Cooinda Primary School,,"10 Allen Street, EAST BUNBURY WA 6230",-33.33466000,115.65233000,WA,Wheelchair Access
,Dalyellup College,,"1 Wake Drive, DALYELLUP WA 6230",-33.40385500,115.62576700,WA,Wheelchair Access
,Dalyellup Primary School,,"14 Hartog Road, DALYELLUP WA 6230",-33.40018500,115.62218200,WA,Wheelchair Access
,ECU South West Campus,,"Lecture Theatres Building, 585 Robinson Drive, COLLEGE GROVE WA 6230",-33.36753,115.65322,WA,Wheelchair Access
,Maidens Park Primary School,,"Westwood Street, WITHERS WA 6230",-33.36920000,115.62827000,WA,
,Milligan Community Learning and Resource Centre,,"35 Milligan Street, CAREY PARK WA 6230",-33.35889100,115.65759600,WA,Wheelchair Access
,Picton Primary School,,"Jeffrey Road, GLEN IRIS WA 6230",-33.34016000,115.68816000,WA,Wheelchair Access
,South Bunbury Pre-Primary Centre,,"19 Prosser Street, SOUTH BUNBURY WA 6230",-33.34031000,115.64260000,WA,Wheelchair Access
,Bramston Park Community Sporting Facility,,"14 Mattingleys Approach, BURNS BEACH WA 6028",-31.72653700,115.73235800,WA,Wheelchair Access
,Clarkson Community High School,,"16 Walyunga Boulevard, CLARKSON WA 6030",-31.67623800,115.72626000,WA,Wheelchair Access
,Clarkson Youth Centre,,"59 Key Largo Drive, CLARKSON WA 6030",-31.69108200,115.71950900,WA,Wheelchair Access
,Currambine Primary School,,"28 Ambassador Drive, CURRAMBINE WA 6028",-31.73304000,115.74892000,WA,Wheelchair Access
,Gumblossom Community Centre,,"17 Tapping Way, QUINNS ROCKS WA 6030",-31.67239000,115.70505000,WA,Wheelchair Access
,Kinross Primary School,,"64 Kinross Drive, KINROSS WA 6028",-31.71846600,115.73623300,WA,Wheelchair Access
,MacNaughton Clubrooms,,"9 MacNaughton Crescent, KINROSS WA 6028",-31.71706000,115.74209000,WA,Wheelchair Access
,Mindarie Primary School,,"90 Rothesay Heights, MINDARIE WA 6030",-31.68700000,115.70893000,WA,Wheelchair Access
,Mindarie Senior College,,"14 Elliston Parade, MINDARIE WA 6030",-31.67720000,115.70615000,WA,Wheelchair Access
,Quinns Beach Primary School,,"5 James Cook Avenue, QUINNS ROCKS WA 6030",-31.65820300,115.69532100,WA,Wheelchair Access
,Somerly Primary School,,"15 Somerly Drive, CLARKSON WA 6030",-31.68481000,115.72782000,WA,Wheelchair Access
,Alkimos Beach Primary School,,"200 Leatherback Boulevard, ALKIMOS WA 6038",-31.62652400,115.68066900,WA,Wheelchair Access
,Butler College,,"15 McCormack Boulevard, BUTLER WA 6036",-31.65166400,115.70870100,WA,Wheelchair Access
,Butler Primary School,,"30 Tollesbury Avenue, BUTLER WA 6036",-31.64572100,115.70257600,WA,Wheelchair Access
,Butler Voting Centre,,"Unit 7/5 Kingsbridge Boulevard, BUTLER WA 6036",-31.64922,115.69709,WA,Wheelchair Access
,East Butler Primary School,,"7 Amersham Crescent, BUTLER WA 6036",-31.64460000,115.71171000,WA,Wheelchair Access
,Merriwa Primary School,,"67 Baltimore Parade, MERRIWA WA 6030",-31.66817000,115.71336000,WA,Wheelchair Access
,Northshore Christian Grammar School,,"50 Scotthorn Drive, ALKIMOS WA 6038",-31.60063000,115.69344100,WA,Wheelchair Access
,RAAFA Estate - Merriwa,,"19 Hughie Edwards Drive, MERRIWA WA 6030",-31.65797100,115.70775600,WA,Wheelchair Access
,Two Rocks Primary School,,"51 Resolute Drive, TWO ROCKS WA 6037",-31.48878900,115.59182000,WA,Wheelchair Access
,Yanchep Beach Primary School,,"100 Lindsay Beach Boulevard, YANCHEP WA 6035",-31.544071,115.631774,WA,Wheelchair Access
,Yanchep Secondary College,,"21 Ravensbourne Street, YANCHEP WA 6035",-31.55252300,115.64342900,WA,Wheelchair Access
,Bannister Creek Primary School,,"20 Purley Crescent, LYNWOOD WA 6147",-32.03903000,115.92848000,WA,Wheelchair Access
,Beckenham Community Church,,"2 Saturn Street, BECKENHAM WA 6107",-32.02597600,115.96231900,WA,Wheelchair Access
,Brookman Primary School,,"34 Brookman Avenue, LANGFORD WA 6147",-32.03749000,115.93884000,WA,Wheelchair Access
,Fountain College,,"12 Karri Way, FERNDALE WA 6148",-32.03632000,115.92035000,WA,Wheelchair Access
,Gibbs Street Primary School,,"79-93 Gibbs Street, EAST CANNINGTON WA 6107",-32.00825000,115.95317000,WA,Wheelchair Access
,Lynwood Christian Church,,"32 Latham Road, FERNDALE WA 6148",-32.02899200,115.93011100,WA,Wheelchair Access
,Parkwood Primary School,,"9 Zelkova Road, PARKWOOD WA 6147",-32.04267000,115.91409000,WA,Wheelchair Access
,Sevenoaks Senior College,,"275 Sevenoaks Street, CANNINGTON WA 6107",-32.01194500,115.94241400,WA,Wheelchair Access
,St Norbert College,,"135 Treasure Road, QUEENS PARK WA 6107",-32.00472600,115.93881200,WA,Wheelchair Access
,Carine Senior High School,,"51 Everingham Street, CARINE WA 6020",-31.85266000,115.77662000,WA,Wheelchair Access
,Davallia Primary School,,"6 Juniper Way, DUNCRAIG WA 6023",-31.84117000,115.78725000,WA,
,Duncraig Primary School,,"21 Roche Road, DUNCRAIG WA 6023",-31.83227000,115.77091000,WA,Wheelchair Access
,Glengarry Primary School,,"25 Doveridge Drive, DUNCRAIG WA 6023",-31.82705700,115.78262400,WA,Wheelchair Access
,Karrinyup Primary School,,"15 Hampton Street, KARRINYUP WA 6018",-31.87046000,115.77588000,WA,Wheelchair Access
,Marmion Primary School,,"7 Cliverton Court, MARMION WA 6020",-31.84405000,115.75865000,WA,Wheelchair Access
,North Beach Community Centre,,"20 Castle Street, NORTH BEACH WA 6020",-31.85598200,115.75481000,WA,Wheelchair Access
,North Beach Primary School,,"75 North Beach Road, NORTH BEACH WA 6020",-31.86028000,115.76108000,WA,Wheelchair Access
,Poynter Primary School,,"39 Poynter Drive, DUNCRAIG WA 6023",-31.84205000,115.77537000,WA,Wheelchair Access
,Sacred Heart College,,"15 Hocking Parade, SORRENTO WA 6020",-31.82664000,115.74766000,WA,Wheelchair Access
,Sorrento Primary School,,"14 Elfreda Avenue, SORRENTO WA 6020",-31.83104000,115.76071000,WA,
,Bakers Hill Primary School,,"33 St George Street, BAKERS HILL WA 6562",-31.74772500,116.46233600,WA,Wheelchair Access
,Bencubbin Community Resource Centre,,"283 Monger Street, BENCUBBIN WA 6477",-30.80948900,117.85924400,WA,Wheelchair Access
,Beverley Community Resource Centre,,"141 Vincent Street, BEVERLEY WA 6304",-32.11000000,116.92472200,WA,Wheelchair Access
,Boddington Shire Chambers,,"39 Bannister Road, BODDINGTON WA 6390",-32.80125800,116.46701700,WA,Wheelchair Access
,Brookton District High School,,"20 Tiller Street, BROOKTON WA 6306",-32.37238000,117.00921000,WA,Wheelchair Access
,Bruce Rock Emergency Centre,,"Lot 290 Dunstal Street, BRUCE ROCK WA 6418",-31.87412500,118.14855500,WA,Wheelchair Access
,Corrigin Senior Citizens Centre,,"8 Lynch Street, CORRIGIN WA 6375",-32.33191100,117.87598400,WA,Wheelchair Access
,Cuballing Agricultural Hall,,"189 Campbell Street, CUBALLING WA 6311",-32.81908000,117.17769000,WA,
,Cunderdin District High School,,"Cubbine Street, CUNDERDIN WA 6407",-31.65534000,117.24454000,WA,
,Greenhills Hall,,"Greenhills Road, GREENHILLS WA 6302",-31.92070000,116.96393900,WA,Wheelchair Access
,Hyden Community Resource Centre,,"40 Naughton Street, HYDEN WA 6359",-32.44857400,118.86052900,WA,Wheelchair Access
,Kellerberrin Memorial Hall,,"Massingham Street, KELLERBERRIN WA 6410",-31.63363000,117.72171000,WA,Wheelchair Access
,Kondinin Primary School,,"75 Graham Street, KONDININ WA 6367",-32.49388000,118.26443000,WA,Wheelchair Access
,Koorda Emergency Centre,,"21 Ninghan Road, KOORDA WA 6475",-30.82600000,117.48444000,WA,Wheelchair Access
,Kulin Resource Centre,,"38 Johnston Street, KULIN WA 6365",-32.67131000,118.15454000,WA,Wheelchair Access
,Merredin Community Resource Centre,,"110 Barrack Street, MERREDIN WA 6415",-31.48197000,118.28083400,WA,Wheelchair Access
,Mukinbudin Shire Chambers,,"15 Maddock Street, MUKINBUDIN WA 6479",-30.91595000,118.20748000,WA,Wheelchair Access
,Narembeen District High School,,"7 Ada Street, NAREMBEEN WA 6369",-32.06311000,118.39134000,WA,Wheelchair Access
,Northam Primary School,,"14 Duke Street, NORTHAM WA 6401",-31.65140000,116.67616000,WA,Wheelchair Access
,Northam Town Hall,,"Corner Wellington & Gordon Streets, NORTHAM WA 6401",-31.656332,116.671239,WA,
,Pingelly Recreation and Cultural Centre,,"Somerset Street, PINGELLY WA 6308",-32.52997800,117.09063500,WA,Wheelchair Access
,Popanyinning Agricultural Hall,,"Great Southern Highway, POPANYINNING WA 6309",-32.65884000,117.12328000,WA,Wheelchair Access
,Quairading Town Hall,,"2 Jennaberring Road, QUAIRADING WA 6383",-32.00728000,117.39896000,WA,Wheelchair Access
,Southern Cross Community Centre,,"25-27 Antares Street, SOUTHERN CROSS WA 6426",-31.23124300,119.32816900,WA,Wheelchair Access
,Tammin Lesser Hall,,"1 Donnan Street, TAMMIN WA 6409",-31.64144200,117.48406200,WA,Wheelchair Access
,Trayning (Don Mason) Community Centre,,"Lot 8 Railway Street, TRAYNING WA 6488",-31.11448700,117.79234700,WA,Wheelchair Access
,Wandering Primary School,,"2 Watts Street, WANDERING WA 6308",-32.67728700,116.67286800,WA,Wheelchair Access
,Westonia Shire Office,,"41 Wolfram Street, WESTONIA WA 6423",-31.30224000,118.69695000,WA,Wheelchair Access
,Wickepin Community Centre,,"49 Campbell Street, WICKEPIN WA 6370",-32.785312,117.500942,WA,Wheelchair Access
,Wundowie Community Hall,,"Banksia Avenue, WUNDOWIE WA 6560",-31.75946400,116.38413500,WA,Wheelchair Access
,Wyalkatchem Community Resource Centre,,"Lot 5700 Railway Terrace, WYALKATCHEM WA 6485",-31.17983000,117.37947000,WA,Wheelchair Access
,York District High School,,"2 Trews Road, YORK WA 6302",-31.89306500,116.75992500,WA,Wheelchair Access
,Churchlands Primary School,,"Cromarty Road, FLOREAT WA 6014",-31.92682000,115.79479100,WA,
,Churchlands Senior High School,,"20 Lucca Street, CHURCHLANDS WA 6018",-31.91729000,115.78999000,WA,
,Doubleview Primary School,,"273 Flamborough Street, DOUBLEVIEW WA 6018",-31.89749400,115.77727600,WA,
,Floreat Park Primary School,,"38 Chandler Avenue West, FLOREAT WA 6014",-31.93674000,115.79141000,WA,
,Floreat Primary - Early Education Centre,,"Birkdale Street, FLOREAT WA 6014",-31.93907100,115.80156700,WA,
,Kapinara Primary School,,"2 Catesby Street, CITY BEACH WA 6015",-31.92549000,115.76243000,WA,
,Lake Monger Primary School,,"Dodd Street, WEMBLEY WA 6014",-31.92438000,115.82164000,WA,
,Wembley Downs Primary School,,"39 Bournemouth Crescent, WEMBLEY DOWNS WA 6019",-31.91095000,115.77102000,WA,
,Wembley Primary School,,"41 Grantham Street, WEMBLEY WA 6014",-31.93462000,115.80972000,WA,
,West Leederville Primary School,,"58 Northwood Street, WEST LEEDERVILLE WA 6007",-31.93914000,115.83247000,WA,
,WestCity Church - Wembley,,"63 Nanson Street, WEMBLEY WA 6014",-31.93560000,115.81509000,WA,
,Woodlands Primary School,,"7 Bentwood Avenue, WOODLANDS WA 6018",-31.91029000,115.78965000,WA,
,Atwell Primary School,,"160 Lydon Boulevard, ATWELL WA 6164",-32.13562000,115.86853000,WA,
,Beeliar Primary School,,"86 The Grange , BEELIAR WA 6164",-32.13237000,115.82130000,WA,Wheelchair Access
,Coogee Primary School,,"22 Mayor Road, COOGEE WA 6166",-32.12648000,115.77172000,WA,
,Harmony Primary School,,"60 Aurora Drive, ATWELL WA 6164",-32.15076000,115.86484000,WA,Wheelchair Access
,Jandakot Primary School,,"53 Baningan Avenue, SUCCESS WA 6164",-32.13889700,115.84642900,WA,
,Lakeland Senior High School,,"106 South Lake Drive, SOUTH LAKE WA 6164",-32.10794000,115.84617000,WA,Wheelchair Access
,Mater Christi Catholic Primary School,,"340 Yangebup Road, YANGEBUP WA 6164",-32.12534200,115.82632600,WA,Wheelchair Access
,South Coogee Primary School,,"40 Ivankovich Avenue, BEELIAR WA 6164",-32.12909000,115.79767000,WA,Wheelchair Access
,St Jerome's School,,"38 Troode Street, MUNSTER WA 6166",-32.12115000,115.78257000,WA,Wheelchair Access
,Success Primary School,,"390 Wentworth Parade, SUCCESS WA 6164",-32.15304000,115.84964000,WA,Wheelchair Access
,Yangebup Primary School,,"55 Moorhen Drive, YANGEBUP WA 6164",-32.11967000,115.81949000,WA,
,Allanson Primary School,,"Cameron Street, ALLANSON WA 6225",-33.33587100,116.09857000,WA,Wheelchair Access
,Australind Primary School,,"Barnes Avenue, AUSTRALIND WA 6233",-33.28059900,115.72713700,WA,Wheelchair Access
,Boyanup Primary School,,"45 Thomas Street, BOYANUP WA 6237",-33.48606000,115.73001000,WA,Wheelchair Access
,Capel Community Centre,,"35 Forrest Road, CAPEL WA 6271",-33.55373600,115.56278200,WA,Wheelchair Access
,Clifton Park Primary School,,"Lucy Victoria Avenue, CLIFTON PARK WA 6233",-33.30850000,115.71100000,WA,Wheelchair Access
,Collie Senior High School,,"Wittenoom Street, COLLIE WA 6225",-33.36280000,116.15671000,WA,Wheelchair Access
,Dardanup Primary School,,"Hayward Street, DARDANUP WA 6236",-33.40089700,115.75758100,WA,Wheelchair Access
,Donnybrook Soldiers Memorial Hall,,"1 Bentley Street, DONNYBROOK WA 6239",-33.57594500,115.82317400,WA,Wheelchair Access
,Eaton Community College,,"20 Recreation Drive, EATON WA 6232",-33.31865000,115.72104000,WA,Wheelchair Access
,Eaton Hall,,"Pratt Road, EATON WA 6232",-33.31277100,115.69983800,WA,Wheelchair Access
,Ferguson Hall,,"945 Ferguson Road, FERGUSON WA 6236",-33.43163800,115.83758500,WA,Wheelchair Access
,Gelorup Community Centre,,"40 Hasties Road, GELORUP WA 6230",-33.40991600,115.64164500,WA,Wheelchair Access
,Kirup Hall,,"South Western Highway, KIRUP WA 6251",-33.70580000,115.89300000,WA,Wheelchair Access
,Margaretta Wilson Centre,,"105 Forrest Street, COLLIE WA 6225",-33.35859000,116.15199900,WA,Wheelchair Access
,North Collie Hall,,"Princep Street, COLLIE WA 6225",-33.34303000,116.16138700,WA,Wheelchair Access
,River Valley Primary School,,"51 Russell Road, BUREKUP WA 6227",-33.30844000,115.81494000,WA,Wheelchair Access
,Treendale Primary School,,"5 Opal Drive, AUSTRALIND WA 6233",-33.28194700,115.73555900,WA,Wheelchair Access
,Yabberup Hall,,"5 Yabberup Road, LOWDEN WA 6240",-33.53718900,116.00736900,WA,Wheelchair Access
,Alf Adams Pavilion,,"Soloman Street, MOSMAN PARK WA 6012",-32.00948000,115.76339200,WA,Wheelchair Access
,City Beach Primary School,,"30 Marapana Road, CITY BEACH WA 6015",-31.93599000,115.76495000,WA,Wheelchair Access
,Cottesloe Civic Centre Lesser Hall,,"109 Broome Street, COTTESLOE WA 6011",-31.99370700,115.75570800,WA,Wheelchair Access
,Cottesloe Primary School,,"530 Stirling Highway, PEPPERMINT GROVE WA 6011",-32.00204600,115.76097200,WA,
,Freshwater Bay Primary School,,"Bay View Terrace, CLAREMONT WA 6010",-31.98585700,115.78194000,WA,Wheelchair Access
,Mount Claremont Primary School,,"103 Alfred Road, MOUNT CLAREMONT WA 6010",-31.96840500,115.78311200,WA,Wheelchair Access
,North Cottesloe Primary School,,"100 Eric Street, COTTESLOE WA 6011",-31.98943000,115.76542000,WA,Wheelchair Access
,North Fremantle Primary School,,"30 John Street, NORTH FREMANTLE WA 6159",-32.03450000,115.75697800,WA,Wheelchair Access
,Saint Hilda's Anglican School for Girls - Chidley Campus,,"McCabe Street, MOSMAN PARK WA 6012",-32.02038700,115.77325000,WA,Wheelchair Access
,Swanbourne Primary School,,"Narla Road, SWANBOURNE WA 6010",-31.97337100,115.77023000,WA,Wheelchair Access
,Bedfordale District Hall,,"40 Admiral Road, BEDFORDALE WA 6112",-32.19311800,116.05859700,WA,
,Byford Voting Centre,,"5/821 South Western Highway, BYFORD WA 6122",-32.21751000,116.00840300,WA,Wheelchair Access
,Clifton Hills Primary School,,"1 Butler Pass, KELMSCOTT WA 6111",-32.10903300,116.02152000,WA,
,Jarrahdale Primary School,,"20 Wanliss Street, JARRAHDALE WA 6124",-32.33928500,116.06229500,WA,
,Karragullen District Hall,,"Old Station Road, KARRAGULLEN WA 6111",-32.08511400,116.11698700,WA,
,Marri Grove Primary School,,"Larson Road, BYFORD WA 6122",-32.21192000,116.00508000,WA,
,Mundijong Primary School,,"Livesey Street, MUNDIJONG WA 6123",-32.29068800,115.98517100,WA,
,Oakford Community Hall,,"Foxton Drive, OAKFORD WA 6121",-32.19056000,115.91778000,WA,
,Roleystone Hall,,"44 Jarrah Road, ROLEYSTONE WA 6111",-32.11246300,116.06928800,WA,
,Serpentine Jarrahdale Community Recreation Centre,,"38 Mead Street, BYFORD WA 6122",-32.22554000,116.00053000,WA,
,Serpentine Primary School,,"45 Lefroy Street, SERPENTINE WA 6125",-32.36578000,115.98092000,WA,
,West Byford Primary School,,"101 Kardan Boulevard, BYFORD WA 6122",-32.21527400,115.97906400,WA,
,Coodanup Community College,,"Wanjeep Street, COODANUP WA 6210",-32.54713000,115.75025000,WA,
,Dudley Park Primary School,,"64 Gillark Street, DUDLEY PARK WA 6210",-32.54182000,115.73561000,WA,Wheelchair Access
,Elevation Church Hall,,"240 McLarty Road, HALLS HEAD WA 6210",-32.53963400,115.69374700,WA,Wheelchair Access
,Falcon Primary School,,"30 Baloo Crescent, FALCON WA 6210",-32.59302000,115.64322000,WA,Wheelchair Access
,Falcon Reserve Football Pavilion,,"49 Lynda Street, FALCON WA 6210",-32.57904400,115.66104500,WA,Wheelchair Access
,Glencoe Primary School,,"12 Brigadoon Close, HALLS HEAD WA 6210",-32.54269100,115.70385600,WA,Wheelchair Access
,Halls Head Primary School,,"21 Oleander Place, HALLS HEAD WA 6210",-32.55072000,115.69552000,WA,Wheelchair Access
,Ocean Road Primary School,,"15 Ocean Road, DAWESVILLE WA 6211",-32.62423000,115.63044000,WA,Wheelchair Access
,South Halls Head Primary School,,"38 Karon Vista, HALLS HEAD WA 6210",-32.56410000,115.67874000,WA,Wheelchair Access
,Southern Estuary Progress Association Hall,,"Estuary Road, DAWESVILLE WA 6210",-32.60986800,115.64265000,WA,Wheelchair Access
,Darling Range Sports College,,"117 Berkshire Road, FORRESTFIELD WA 6058",-31.97593000,116.00966800,WA,Wheelchair Access
,East Kenwick Primary School,,"96 Kenwick Road, KENWICK WA 6107",-32.03230900,115.98032700,WA,Wheelchair Access
,Edney Primary School,,"204 Newburn Road, HIGH WYCOMBE WA 6057",-31.94738900,116.00703700,WA,Wheelchair Access
,Forrestfield Primary School,,"45 Sussex Road, FORRESTFIELD WA 6058",-31.99081000,116.00824000,WA,Wheelchair Access
,High Wycombe Primary School,,"60 Newburn Road, HIGH WYCOMBE WA 6057",-31.94029700,116.00279100,WA,Wheelchair Access
,Maida Vale Primary School,,"310 Kalamunda Road, MAIDA VALE WA 6057",-31.94943100,116.02287600,WA,Wheelchair Access
,Wattle Grove Primary School,,"73 St John Road, WATTLE GROVE WA 6107",-31.99660500,115.98315400,WA,Wheelchair Access
,Woodlupine Primary School,,"29 Solandra Way, FORRESTFIELD WA 6058",-31.98429100,116.00413500,WA,Wheelchair Access
,Christ The King School,,"87 York Street, BEACONSFIELD WA 6162",-32.07212500,115.77335700,WA,Wheelchair Access
,East Hamilton Hill Primary School,,"27 Bradbury Road, HAMILTON HILL WA 6163",-32.07695000,115.78954000,WA,Wheelchair Access
,Fremantle Primary School,,"1 Brennan Street, FREMANTLE WA 6160",-32.05863400,115.75306600,WA,
,Fremantle Voting Centre,,"Unit 1/4-8 Adelaide Street, (Opposite Town Hall entrance), FREMANTLE WA 6160",-32.05389900,115.74715500,WA,Wheelchair Access
,Hilton Primary School,,"21 Rennie Crescent North, HILTON WA 6163",-32.06803000,115.78455000,WA,Wheelchair Access
,Palmyra Voting Centre,,"Shop 4/307 Stock Road, PALMYRA WA 6157",-32.05395500,115.79242200,WA,Wheelchair Access
,Phoenix Primary School,,"28 Phoenix Road, HAMILTON HILL WA 6163",-32.09247600,115.77892300,WA,
,Rottnest Island Picture Hall,,"Brand Way, ROTTNEST ISLAND WA 6161",-31.99744000,115.53986500,WA,Wheelchair Access
,South Metropolitan Education Regional Office,,"184 Hampton Road, BEACONSFIELD WA 6162",-32.06734900,115.75789700,WA,Wheelchair Access
,Southwell Primary School,,"26 Grandpre Crescent, HAMILTON HILL WA 6163",-32.09019000,115.78447000,WA,Wheelchair Access
,Spearwood Primary School,,"73 Gerald Street, SPEARWOOD WA 6163",-32.101155,115.787647,WA,
,White Gum Valley Primary School,,"29 Hope Street, WHITE GUM VALLEY WA 6162",-32.05905500,115.76562200,WA,Wheelchair Access
,Allendale Primary School,,"52 Wittenoom Street, GERALDTON WA 6530",-28.76407000,114.62322000,WA,Wheelchair Access
,Bluff Point Primary School,,"18 Mitchell Street, BLUFF POINT WA 6530",-28.73974000,114.62270000,WA,Wheelchair Access
,Cape Burney Volunteer Fire Brigade,,"5 Hull Street, CAPE BURNEY WA 6532",-28.86075900,114.64186600,WA,
,Geraldton Primary School,,"75 Fitzgerald Street, GERALDTON WA 6530",-28.77889500,114.60805500,WA,
,Geraldton Voting Centre,,"Shop 1/89 Durlacher Street, GERALDTON WA 6530",-28.775225,114.614723,WA,Wheelchair Access
,John Batten Drummond Cove Community Centre,,"62 Whitehill Road, DRUMMOND COVE WA 6532",-28.67039300,114.61229300,WA,
,Moonyoonooka Polocrosse Club,,"Geraldton-Mt Magnet Road, MOONYOONOOKA WA 6532",-28.78212000,114.73445000,WA,
,Mount Tarcoola Primary School,,"57 Forden Street, MOUNT TARCOOLA WA 6530",-28.80037000,114.62875000,WA,Wheelchair Access
,Rangeway Primary School,,"4 Cassia Street, RANGEWAY WA 6530",-28.77983000,114.62863000,WA,Wheelchair Access
,Spalding Family Centre,,"75 Mitchell Street, SPALDING WA 6530",-28.74152000,114.62996100,WA,Wheelchair Access
,Waggrakine Primary School,,"9 Hall Road, WAGGRAKINE WA 6530",-28.71826400,114.63750300,WA,Wheelchair Access
,Walkaway Primary School,,"8 Evans Road, WALKAWAY WA 6528",-28.93975200,114.79922200,WA,
,Wandina Primary School,,"Lot 475 Ajax Drive, WANDINA WA 6530",-28.81693300,114.63564900,WA,Wheelchair Access
,Beldon Primary School,,"10 Pacific Way, BELDON WA 6027",-31.77422000,115.75742000,WA,
,Craigie Heights Primary School,,"47 Spinaway Street, CRAIGIE WA 6025",-31.78955000,115.76075000,WA,Wheelchair Access
,Flinders Park Community Hall,,"Broadbeach Boulevard, HILLARYS WA 6025",-31.80818500,115.73650000,WA,Wheelchair Access
,Hillarys Primary School,,"75 Lymburner Drive, HILLARYS WA 6025",-31.81260300,115.75286000,WA,
,Mullaloo Heights Primary School,,"27 Charonia Road, MULLALOO WA 6027",-31.77744000,115.74872000,WA,
,Padbury Primary School,,"MacDonald Avenue, PADBURY WA 6025",-31.80478000,115.76064000,WA,
,South Padbury Primary School,,"56 Warburton Avenue, PADBURY WA 6025",-31.81174000,115.76420000,WA,
,Springfield Primary School,,"31 Bridgewater Drive, KALLAROO WA 6025",-31.79298300,115.75066600,WA,Wheelchair Access
,St Mark's Anglican Community School,,"20 St Marks Drive, HILLARYS WA 6025",-31.79848700,115.74287300,WA,
,Canning Vale Primary School,,"The Ramble , CANNING VALE WA 6155",-32.07606000,115.91252000,WA,Wheelchair Access
,Forrestdale Primary School,,"35 Broome Street, FORRESTDALE WA 6112",-32.15301800,115.94853800,WA,Wheelchair Access
,Harrisdale Primary School,,"7 Fairhaven Avenue, HARRISDALE WA 6112",-32.12481000,115.93703000,WA,Wheelchair Access
,Leeming Primary School,,"10 Meharry Road, LEEMING WA 6149",-32.07605000,115.86302000,WA,Wheelchair Access
,Nido Early School,,"101 Clementine Boulevard, TREEBY WA 6164",-32.11921000,115.87834100,WA,Wheelchair Access
,Piara Waters Primary School,,"440 Wright Road, PIARA WATERS WA 6112",-32.12697000,115.91625000,WA,Wheelchair Access
,Ranford Primary School,,"Orkney Crescent, CANNING VALE WA 6155",-32.09374800,115.91089100,WA,Wheelchair Access
,West Leeming Primary School,,"50 Westall Terrace, LEEMING WA 6149",-32.07039000,115.85615000,WA,Wheelchair Access
,Beaumaris Community Centre,,"66 Constellation Drive, OCEAN REEF WA 6027",-31.75107700,115.73482100,WA,Wheelchair Access
,Connolly Primary School,,"Fairway Circle, CONNOLLY WA 6027",-31.74707000,115.75788000,WA,Wheelchair Access
,Eddystone Primary School,,"Littorina Avenue, HEATHRIDGE WA 6027",-31.76668000,115.76863000,WA,Wheelchair Access
,Edgewater Primary School,,"76 Treetop Avenue, EDGEWATER WA 6027",-31.76341000,115.78043000,WA,Wheelchair Access
,Joondalup Primary School,,"150 Blue Mountain Drive, JOONDALUP WA 6027",-31.72328000,115.76142400,WA,Wheelchair Access
,Joondalup Public Library,,"102 Boas Avenue, JOONDALUP WA 6027",-31.74360000,115.77342000,WA,Wheelchair Access
,Ocean Reef Senior High School,,"21 Venturi Drive, OCEAN REEF WA 6027",-31.75974000,115.73890000,WA,Wheelchair Access
,Poseidon Primary School,,"97 Poseidon Road, HEATHRIDGE WA 6027",-31.76099000,115.75188000,WA,Wheelchair Access
,Carmel Hall,,"152 Carmel Road, CARMEL WA 6076",-32.01939700,116.09059300,WA,Wheelchair Access
,Churches of Christ in WA,,"1470 Stoneville Road, MUNDARING WA 6073",-31.88377600,116.17149000,WA,Wheelchair Access
,Darlington Lesser Hall,,"Owen Road, DARLINGTON WA 6070",-31.91812800,116.07475300,WA,Wheelchair Access
,Falls Road Primary School,,"50 Falls Road, LESMURDIE WA 6076",-31.99247400,116.04769900,WA,Wheelchair Access
,Glen Forrest Primary School,,"34 Tillbrook Street, GLEN FORREST WA 6071",-31.91555700,116.10089800,WA,Wheelchair Access
,Gooseberry Hill Primary School,,"24 Ledger Road, GOOSEBERRY HILL WA 6076",-31.95611300,116.05606600,WA,Wheelchair Access
,Kalamunda Primary School,,"32 Heath Road, KALAMUNDA WA 6076",-31.97140000,116.05147000,WA,Wheelchair Access
,Kalamunda Senior High School,,"12 Cotherstone Road, KALAMUNDA WA 6076",-31.97735000,116.05683400,WA,Wheelchair Access
,Lesmurdie Primary School,,"49 Sanderson Road, LESMURDIE WA 6076",-32.00445700,116.04572200,WA,Wheelchair Access
,Mahogany Creek Hall,,"3060 Strettle Road, MAHOGANY CREEK WA 6072",-31.90624700,116.13755600,WA,Wheelchair Access
,Mundaring Hall,,"Cnr Jacoby and Nichol Streets, MUNDARING WA 6073",-31.90330800,116.16549300,WA,Wheelchair Access
,Mundaring Primary School,,"855 Stevens Street, MUNDARING WA 6073",-31.89503600,116.17233300,WA,Wheelchair Access
,Parkerville Primary School,,"16 Parker Road, PARKERVILLE WA 6081",-31.88329900,116.13308400,WA,Wheelchair Access
,Pickering Brook Primary School,,"241 Pickering Brook Road, PICKERING BROOK WA 6076",-32.03487600,116.13155500,WA,Wheelchair Access
,Walliston Primary School,,"11 Dianella Road, WALLISTON WA 6076",-31.99878000,116.07019000,WA,Wheelchair Access
,Boulder Primary School,,"200 Lane Street, BOULDER WA 6432",-30.77972700,121.48845800,WA,
,Coolgardie Community Recreation Centre,,"69 Sylvester Street, COOLGARDIE WA 6429",-30.95370400,121.16417900,WA,
,Goldfields Arts Centre,,"35 Cheetham Street, KALGOORLIE WA 6430",-30.75040000,121.47602000,WA,Wheelchair Access
,Hannans Primary School,,"2 A Nankiville Road , KALGOORLIE WA 6430",-30.72423000,121.45171000,WA,Wheelchair Access
,John Paul College,,"Lionel Street, SOUTH KALGOORLIE WA 6430",-30.76360000,121.47896000,WA,
,Kalgoorlie Health Campus,,"Piccadilly Street, PICCADILLY WA 6430",-30.74063000,121.46941000,WA,Wheelchair Access
,Kambalda West District High School,,"Salmon Gums Road, KAMBALDA WEST WA 6442",-31.20617000,121.61909000,WA,
,Laverton Primary School,,"Lancefield Street, LAVERTON WA 6440",-28.62730000,122.40380000,WA,Wheelchair Access
,Leinster Community Hall,,"Link Road, LEINSTER WA 6437",-27.91328000,120.69769000,WA,
,Leonora Recreation Centre,,"Tower Street, LEONORA WA 6438",-28.88199900,121.33109300,WA,Wheelchair Access
,Norseman Town Hall,,"88-92 Prinsep Street, NORSEMAN WA 6443",-32.19884000,121.77913000,WA,Wheelchair Access
,North Kalgoorlie Primary School,,"Campbell Street, LAMINGTON WA 6430",-30.73868700,121.46016300,WA,Wheelchair Access
,O'Connor Primary School,,"235 Johnston Street, KALGOORLIE WA 6430",-30.77741000,121.46585000,WA,
,Broome Civic Centre,,"27 Weld Street, BROOME WA 6725",-17.95948400,122.23984100,WA,Wheelchair Access
,Broome North Primary School,,"100 Tanami Drive, BROOME WA 6725",-17.92663700,122.23014200,WA,Wheelchair Access
,Cable Beach Primary School,,"Dakas Street, CABLE BEACH WA 6726",-17.95933800,122.21680600,WA,
,Derby District High School,,"10 Anderson Street, DERBY WA 6728",-17.30814500,123.63354700,WA,Wheelchair Access
,Fitzroy Valley District High School,,"Flynn Drive, FITZROY CROSSING WA 6765",-18.18808200,125.56431500,WA,
,Halls Creek District High School,,"Thomas Street, HALLS CREEK WA 6770",-18.22515000,127.66905000,WA,
,Kununurra Leisure Centre,,"115 Coolibah Drive, KUNUNURRA WA 6743",-15.77314000,128.73836000,WA,Wheelchair Access
,Roebuck Bay Primary School,,"Spoonbill Avenue, BROOME WA 6725",-17.93988000,122.23247000,WA,
,Wyndham District High School,,"16 Coverley Street, WYNDHAM WA 6740",-15.48800400,128.12083100,WA,
,Church of Christ Warwick,,"77 Ellersdale Avenue, WARWICK WA 6024",-31.84174000,115.80920000,WA,Wheelchair Access
,Creaney Primary School,,"6 Creaney Drive, KINGSLEY WA 6026",-31.80365000,115.78842000,WA,Wheelchair Access
,East Hamersley Primary School,,"20 Doon Way, HAMERSLEY WA 6022",-31.84777700,115.81791700,WA,Wheelchair Access
,Glendale Primary School,,"21 Glendale Avenue, HAMERSLEY WA 6022",-31.84851300,115.80764400,WA,Wheelchair Access
,Goollelal Primary School,,"30 Cadogan Street, KINGSLEY WA 6026",-31.81516000,115.80116000,WA,Wheelchair Access
,Greenwood College,,"79 Coolibah Drive, GREENWOOD WA 6024",-31.82782000,115.79150000,WA,Wheelchair Access
,Greenwood Primary School,,"12 Merivale Way, GREENWOOD WA 6024",-31.82876800,115.80845900,WA,Wheelchair Access
,Halidon Primary School,,"38 Halidon Street, KINGSLEY WA 6026",-31.80828000,115.80150000,WA,Wheelchair Access
,Hawker Park Primary School,,"47 Hawker Avenue, WARWICK WA 6024",-31.84019000,115.79710000,WA,Wheelchair Access
,Woodvale Primary School,,"44 Keatley Crescent, WOODVALE WA 6026",-31.79431500,115.79369500,WA,Wheelchair Access
,Woodvale Secondary College,,"110 Woodvale Drive, WOODVALE WA 6026",-31.79130000,115.80048000,WA,Wheelchair Access
,Aubin Grove Primary School,,"85 Camden Boulevard, AUBIN GROVE WA 6164",-32.17272000,115.86136200,WA,Wheelchair Access
,Bertram Primary School,,"Champion Drive, BERTRAM WA 6167",-32.24695000,115.84320000,WA,Wheelchair Access
,Calista Primary School,,"Chilcott Street, CALISTA WA 6167",-32.24559000,115.81067000,WA,Wheelchair Access
,Casuarina Wellard Community Hall,,"Cnr Mortimer & Barker Road, WELLARD WA 6170",-32.25566300,115.87254600,WA,Wheelchair Access
,Hammond Park Primary School,,"10 Eucalyptus Drive, HAMMOND PARK WA 6164",-32.16638200,115.84429800,WA,Wheelchair Access
,Honeywood Primary School,,"Winjana Rise, WANDI WA 6167",-32.19397700,115.86420900,WA,Wheelchair Access
,Leda Primary School,,"1-25 Feilman Drive, LEDA WA 6170",-32.26021800,115.80396700,WA,Wheelchair Access
,Medina Primary School,,"2 Medina Avenue, MEDINA WA 6167",-32.23592700,115.80477100,WA,Wheelchair Access
,North Parmelia Primary School,,"15-35 Durrant Avenue, PARMELIA WA 6167",-32.23544000,115.83616000,WA,Wheelchair Access
,St Vincent's School,,"114 Parmelia Avenue, PARMELIA WA 6167",-32.25254200,115.82616700,WA,Wheelchair Access
,Alexander Heights Community Hall,,"18 Linto Way, ALEXANDER HEIGHTS WA 6064",-31.82852900,115.85360100,WA,Wheelchair Access
,Alinjarra Primary School,,"33 Northumberland Avenue, ALEXANDER HEIGHTS WA 6064",-31.83007400,115.87032200,WA,Wheelchair Access
,Ashdale Primary School,,"51 Ashdale Boulevard, DARCH WA 6065",-31.80856000,115.84383000,WA,Wheelchair Access
,Carnaby Rise Primary School,,"Pomodora Avenue, LANDSDALE WA 6065",-31.81744000,115.87498900,WA,
,Hocking Primary School,,"50 Gungurru Avenue, HOCKING WA 6065",-31.76971000,115.81685000,WA,Wheelchair Access
,Kingsway Christian College,,"157 Kingsway , DARCH WA 6065",-31.81156700,115.83740400,WA,
,Landsdale Primary School,,"The Broadview , LANDSDALE WA 6065",-31.80382000,115.86241000,WA,Wheelchair Access
,Madeley Primary School,,"Martindale Avenue, MADELEY WA 6065",-31.80663900,115.82973700,WA,Wheelchair Access
,Pearsall Primary School,,"Willespie Drive, PEARSALL WA 6065",-31.78096000,115.81768000,WA,Wheelchair Access
,Assumption Catholic Primary School,,"22-34 Gordon Road, MANDURAH WA 6210",-32.51048000,115.74697000,WA,Wheelchair Access
,Billy Dower Youth Centre,,"41 Dower Street, MANDURAH WA 6210",-32.53231300,115.74030700,WA,
,Coastal Lakes College,,"135 Badgerup Avenue, LAKELANDS WA 6180",-32.46819300,115.76273700,WA,
,Eastlake Church,,"99 Lakes Road, GREENFIELDS WA 6210",-32.53092300,115.76194000,WA,
,Madora Bay Community Hall,,"Orelia Street, MADORA BAY WA 6210",-32.47271500,115.75206600,WA,
,Mandurah Seniors Centre,,"41 Ormsby Terrace, MANDURAH WA 6210",-32.52669300,115.72015000,WA,Wheelchair Access
,RAAFA Meadow Springs Estate,,"41 Portrush Parade, MEADOW SPRINGS WA 6210",-32.50288000,115.75345000,WA,Wheelchair Access
,Riverside Primary School,,"1 Minilya Parkway, GREENFIELDS WA 6210",-32.53179000,115.76789000,WA,Wheelchair Access
,Bayswater Senior Citizens Centre,,"27 King William Street, BAYSWATER WA 6053",-31.92028800,115.91386200,WA,Wheelchair Access
,Embleton Primary School,,"51 Priestly Street, EMBLETON WA 6062",-31.90188000,115.90980200,WA,Wheelchair Access
,Filipino Australian Club of Perth Inc,,"1 Catherine Street, BEDFORD WA 6052",-31.91267200,115.88771900,WA,
,Hillcrest Primary School,,"2 Bay View Street, BAYSWATER WA 6053",-31.90977700,115.90207400,WA,Wheelchair Access
,Inglewood Masonic Hall,,"125 Ninth Avenue, INGLEWOOD WA 6052",-31.92465000,115.88842900,WA,
,Inglewood Primary School,,"34 Normanby Road, INGLEWOOD WA 6052",-31.91723500,115.88642600,WA,
,Maylands Peninsula Primary School,,"60 Kelvin Street, MAYLANDS WA 6051",-31.93230100,115.90388700,WA,Wheelchair Access
,School of Instrumental Music,,"150 Guildford Road, MAYLANDS WA 6051",-31.93181300,115.89153100,WA,
,Bellevue Hall,,"10 Helen Street, BELLEVUE WA 6056",-31.89951500,116.02765500,WA,Wheelchair Access
,Caversham Valley Primary School,,"60 Summerville Boulevard, CAVERSHAM WA 6055",-31.86790100,115.96887900,WA,Wheelchair Access
,Clayton View Primary School,,"Wangalla Road, KOONGAMIA WA 6056",-31.90530200,116.04060400,WA,
,Goodstart Early Learning Stratton,,"165 Talbot Road, STRATTON WA 6056",-31.86221700,116.04564200,WA,
,Greenmount Primary School,,"50-68 Innamincka Road, GREENMOUNT WA 6056",-31.89710500,116.04680600,WA,
,Guildford Town Hall,,"Cnr James and Meadows Streets, GUILDFORD WA 6055",-31.89957000,115.97201000,WA,Wheelchair Access
,Helena Valley Primary School,,"3700 Helena Valley Road, HELENA VALLEY WA 6056",-31.92468200,116.04909600,WA,
,Midland Town Hall,,"Cnr Great Eastern Highway and Old Great Northern Highway, MIDLAND WA 6056",-31.88948000,116.00214000,WA,Wheelchair Access
,North Metropolitan TAFE Midland Campus,,"Eddie Barron Drive, MIDDLE SWAN WA 6056",-31.87806800,116.01929800,WA,Wheelchair Access
,Stratton Community Hall,,"Jecks Place, STRATTON WA 6056",-31.86861700,116.03502800,WA,Wheelchair Access
,Swan View Senior High School,,"Gladstone Avenue, SWAN VIEW WA 6056",-31.88843000,116.04381000,WA,
,Balga Primary School,,"11 Fernhurst Crescent, BALGA WA 6061",-31.86099000,115.84478000,WA,
,Boyare Primary School,,"9 Threadleaf Way, MIRRABOOKA WA 6061",-31.85771000,115.87345700,WA,
,Hudson Park Primary School,,"23 Arnos Way, GIRRAWHEEN WA 6064",-31.83985000,115.83706000,WA,Wheelchair Access
,Koondoola Primary School,,"50 Burbridge Avenue, KOONDOOLA WA 6064",-31.83790200,115.86236100,WA,
,Marangaroo Hepburn Centre,,"46 Highclere Boulevard, MARANGAROO WA 6064",-31.83060100,115.83952500,WA,
,Marangaroo Primary School,,"88 Giralt Road, MARANGAROO WA 6064",-31.82843000,115.82705000,WA,Wheelchair Access
,Mirrabooka Voting Centre,,"Mirrabooka Community Centre , cnr Dryandra Drive and Pendula Gardens, MIRRABOOKA WA 6061",-31.856552,115.863184,WA,Wheelchair Access
,North Balga Primary School,,"30 Maitland Road, BALGA WA 6061",-31.85243000,115.83413000,WA,
,Rawlinson Primary School,,"27 Rawlinson Drive, MARANGAROO WA 6064",-31.82784000,115.84409000,WA,Wheelchair Access
,Roseworth Primary School,,"30 Stebbing Way, GIRRAWHEEN WA 6064",-31.84076000,115.85322000,WA,Wheelchair Access
,St Andrew's Grammar School,,"2 Hellenic Drive, DIANELLA WA 6059",-31.87006600,115.87486800,WA,Wheelchair Access
,Badgingarra Community Centre,,"Cnr North West Road and Meagher Drive, BADGINGARRA WA 6521",-30.38721000,115.49866000,WA,
,Bindoon Town Hall,,"Great Northern Highway, BINDOON WA 6502",-31.38602600,116.09680800,WA,
,Bolgart Primary School,,"28 Smith Street, BOLGART WA 6568",-31.27389500,116.51046600,WA,
,Calingiri Primary School,,"18 Cavell Street, CALINGIRI WA 6569",-31.09015400,116.44917700,WA,
,Carnamah District High School,,"48 McPherson Street, CARNAMAH WA 6517",-29.68695000,115.89191000,WA,
,Cervantes Recreation Centre,,"7 Aragon Street, CERVANTES WA 6511",-30.49958600,115.07020500,WA,Wheelchair Access
,Coorow District Hall,,"Main Street, COOROW WA 6515",-29.88094400,116.02397500,WA,
,Dalwallinu District High School,,"97 Johnston Street, DALWALLINU WA 6609",-30.27029400,116.66203700,WA,
,Dandaragan Primary School,,"Dandaragan Road, DANDARAGAN WA 6507",-30.67287000,115.70262000,WA,
,Dowerin Lesser Hall,,"15 Cottrell Street, DOWERIN WA 6461",-31.19495700,117.03103500,WA,
,Eneabba Primary School,,"20 Dewar Street, ENEABBA WA 6518",-29.81944000,115.26876900,WA,
,Gingin District High School Performing Arts Centre,,"1 Daw Street, GINGIN WA 6503",-31.34427600,115.91236900,WA,
,Goomalling Community Resource Centre,,"51 - 53 Railway Terrace, GOOMALLING WA 6460",-31.29911800,116.82680100,WA,Wheelchair Access
,Green Head Community Centre,,"Cnr The Lakes and Green Head Road, GREEN HEAD WA 6514",-30.06727400,114.96817100,WA,
,Guilderton Hall,,"Wedge Street, GUILDERTON WA 6041",-31.34877200,115.50437500,WA,Wheelchair Access
,Immaculate Heart College,,"34 Santa Gertrudis Drive, LOWER CHITTERING WA 6084",-31.56069000,116.07813000,WA,Wheelchair Access
,Irwin Recreation Centre,,"1 Ridley Street, DONGARA WA 6525",-29.26529300,114.92460400,WA,Wheelchair Access
,Jurien Bay District High School,,"19 Hamersley Street, JURIEN BAY WA 6516",-30.30761000,115.03962000,WA,Wheelchair Access
,Kalannie Primary School,,"41 Locke Street, KALANNIE WA 6468",-30.36294000,117.11542000,WA,
,Lancelin Primary School,,"Gingin Road, LANCELIN WA 6044",-31.01148300,115.32985000,WA,Wheelchair Access
,Ledge Point Community Hall,,"381 Turner Street, LEDGE POINT WA 6043",-31.10870000,115.37788000,WA,Wheelchair Access
,Leeman Primary School,,"10 Spencer Street, LEEMAN WA 6514",-29.94823000,114.97841000,WA,
,Miling Town Hall,,"Great Northern Highway, MILING WA 6575",-30.49217600,116.36222900,WA,
,Mingenew-Irwin Group Bankwest Building,,"6 Victoria Road, MINGENEW WA 6522",-29.19070400,115.44239500,WA,
,Moora Performing Arts Centre,,"Padbury Street, MOORA WA 6510",-30.64187400,116.00801000,WA,
,Morawa District High School,,"34 Gill Street, MORAWA WA 6623",-29.21120100,116.00591300,WA,Wheelchair Access
,Muchea Community Hall,,"Archibald Street, MUCHEA WA 6501",-31.58197000,115.97096000,WA,Wheelchair Access
,Mullewa District High School,,"Jose Street, MULLEWA WA 6630",-28.53676000,115.51240000,WA,
,Nabawa Community Centre,,"Chapman Valley Road, NABAWA WA 6532",-28.49911300,114.79279000,WA,
,New Norcia Institute Study Hall,,"New Norcia Road, NEW NORCIA WA 6509",-30.96852000,116.21604000,WA,
,Northampton RSL Hall,,"Essex Street, NORTHAMPTON WA 6535",-28.34778800,114.63102000,WA,
,Perenjori Primary School,,"Carnamah-Perenjori Road, PERENJORI WA 6620",-29.44367100,116.28611000,WA,
,Three Springs Primary School,,"30 Carter Street, THREE SPRINGS WA 6519",-29.53460600,115.76123400,WA,
,Toodyay Memorial Hall,,"117 Stirling Terrace, TOODYAY WA 6566",-31.55024500,116.46683100,WA,Wheelchair Access
,Watheroo Primary School,,"Cnr York & Marah Street, WATHEROO WA 6513",-30.29917200,116.05994600,WA,
,Wongan Hills Community Resource Centre,,"Lot 1 Wongan Road, WONGAN HILLS WA 6603",-30.89305000,116.71624000,WA,Wheelchair Access
,Woodridge Community Centre,,"13 King Drive, WOODRIDGE WA 6041",-31.33754000,115.59856000,WA,
,Camboon Primary School,,"Forder Road, NORANDA WA 6062",-31.87691000,115.89090000,WA,
,Dianella Heights Primary School,,"9 Beaman Street, DIANELLA WA 6059",-31.88364200,115.86600200,WA,Wheelchair Access
,Dianella Secondary College,,"180 Nollamara Avenue, DIANELLA WA 6059",-31.87822000,115.85274000,WA,Wheelchair Access
,Hampton Park Primary School,,"Hamersley Place, MORLEY WA 6062",-31.88658100,115.91710200,WA,
,John Septimus Roe Anglican Community School,,"463 Beechboro Road, BEECHBORO WA 6063",-31.87121000,115.92315000,WA,Wheelchair Access
,Morley Primary School,,"36 Wellington Road, MORLEY WA 6062",-31.89212000,115.89537000,WA,Wheelchair Access
,Nollamara Primary School,,"101 Harrison Street, NOLLAMARA WA 6061",-31.88463000,115.83962000,WA,Wheelchair Access
,Noranda Primary School,,"25 Walmsley Drive, NORANDA WA 6062",-31.87713000,115.90798000,WA,
,North Morley Primary School,,"81 Gordon Road West, DIANELLA WA 6059",-31.87846000,115.87845000,WA,Wheelchair Access
,Australian Islamic College - Dianella,,"81 Cleveland Street, DIANELLA WA 6059",-31.90275000,115.87489000,WA,Wheelchair Access
,Coolbinia Primary School,,"104 Bradford Street, COOLBINIA WA 6050",-31.91367000,115.85971000,WA,Wheelchair Access
,Dianella Community Centre,,"18 Kerry Street, DIANELLA WA 6059",-31.89700800,115.87462700,WA,
,Mount Lawley Primary School,,"92 Second Avenue, MOUNT LAWLEY WA 6050",-31.92580800,115.87634200,WA,Wheelchair Access
,North Metropolitan TAFE Mount Lawley Campus,,"397 Lord Street, MOUNT LAWLEY WA 6050",-31.93956000,115.87588000,WA,Wheelchair Access
,St Patrick's Anglican Church,,"65 First Avenue, MOUNT LAWLEY WA 6050",-31.92872700,115.87641700,WA,
,St Paul's Primary School,,"7 Learoyd Street, MOUNT LAWLEY WA 6050",-31.92547200,115.86438200,WA,
,Sutherland Dianella Primary School,,"5 Sutherland Avenue, DIANELLA WA 6059",-31.89383500,115.86494700,WA,Wheelchair Access
,Vedanta Church,,"Corner Lockwood and Golf View Streets, YOKINE WA 6060",-31.89738900,115.84586500,WA,
,West Morley Primary School,,"Fitzroy Street, DIANELLA WA 6059",-31.89078000,115.88597000,WA,
,Yokine Community Playgroup,,"26 Ranger Road, YOKINE WA 6060",-31.90197000,115.85194300,WA,
,Yokine Primary School,,"39 Woodrow Avenue, YOKINE WA 6060",-31.90145000,115.85944000,WA,
,Austin Cove Baptist College,,"Inlet Boulevard, SOUTH YUNDERUP WA 6208",-32.59213000,115.80526000,WA,
,Australind Primary School,,"Barnes Avenue, AUSTRALIND WA 6233",-33.280599,115.727137,WA,Wheelchair Access
,Binningup Community Hall,,"Driftwood Way, BINNINGUP WA 6233",-33.15046900,115.69470900,WA,Wheelchair Access
,Brunswick Junction Primary School,,"6 Vincent Street, BRUNSWICK JUNCTION WA 6224",-33.252447,115.833924,WA,Wheelchair Access
,Carcoola Primary School,,"Wisteria Crescent, NORTH PINJARRA WA 6208",-32.60554500,115.89344500,WA,
,Coolup Community Hall,,"186 Murray Street, COOLUP WA 6214",-32.73963800,115.87466200,WA,Wheelchair Access
,Dwellingup Primary School,,"10 Newton Street, DWELLINGUP WA 6213",-32.71531000,116.06358000,WA,Wheelchair Access
,Kingston Primary School,,"Macquarie Drive, AUSTRALIND WA 6233",-33.25960500,115.74408600,WA,Wheelchair Access
,Lake Clifton Community Centre,,"114 Tuart Grove Avenue, LAKE CLIFTON WA 6215",-32.80116000,115.69047000,WA,Wheelchair Access
,North Dandalup Community Hall,,"South Western Highway, NORTH DANDALUP WA 6207",-32.51807600,115.97237200,WA,Wheelchair Access
,North Yunderup CWA Centre,,"45 Culeenup Road, NORTH YUNDERUP WA 6208",-32.58010700,115.78834300,WA,
,Parkfield Primary School,,"Chapple Drive, AUSTRALIND WA 6233",-33.26555000,115.72633500,WA,Wheelchair Access
,Pinjarra Senior High School,,"16 McLarty Road, PINJARRA WA 6208",-32.63306000,115.87207000,WA,Wheelchair Access
,Riverlinks Community Centre,,"1 Leisure Drive, AUSTRALIND WA 6233",-33.27242200,115.73488100,WA,
,Settlers Hall,,"Marine Drive, LESCHENAULT WA 6233",-33.25140000,115.73443600,WA,
,St Anne's Primary School,,"Young Street, HARVEY WA 6220",-33.08275000,115.89157000,WA,Wheelchair Access
,Waroona Senior Citizens Centre,,"Millar Street, WAROONA WA 6215",-32.84503100,115.92294700,WA,Wheelchair Access
,West Murray Community Hall,,"Cnr Pinjarra and Goodooga Road, FURNISSDALE WA 6210",-32.55847000,115.78686000,WA,Wheelchair Access
,Yarloop Primary School,,"22 School Road, YARLOOP WA 6218",-32.96199600,115.90366800,WA,
,Constitutional Centre,,"40 Havelock Street, WEST PERTH WA 6005",-31.95143400,115.84393400,WA,
,Dalkeith Primary School,,"44 Circe Circle, DALKEITH WA 6009",-31.99638000,115.79772000,WA,Wheelchair Access
,Hollywood Primary School,,"117 Monash Avenue, NEDLANDS WA 6009",-31.97019600,115.80737800,WA,
,John Leckie Pavilion,,"Melvista Avenue, NEDLANDS WA 6009",-31.98864100,115.79128700,WA,Wheelchair Access
,Jolimont Primary School,,"657 Hay Street, JOLIMONT WA 6014",-31.94823500,115.80830500,WA,
,Nedlands Primary School,,"35 Kingsway, NEDLANDS WA 6009",-31.98434100,115.81252400,WA,
,Shenton Park Voting Centre,,"240 Onslow Road, SHENTON PARK WA 6008",-31.96072400,115.81065200,WA,Wheelchair Access
,Subiaco Community Centre,,"203 Bagot Road, SUBIACO WA 6008",-31.95057600,115.82528600,WA,
,Subiaco Primary School,,"271 Bagot Road, SUBIACO WA 6008",-31.95074400,115.82277000,WA,
,Tresillian Community Centre,,"21 Tyrell Street, NEDLANDS WA 6009",-31.98124200,115.80872900,WA,
,University of Western Australia - Nedlands Campus,,"Clifton Street, NEDLANDS WA 6009",-31.976887,115.812023,WA,Wheelchair Access
,Carnarvon Community College (Marmion Street Campus),,"27 Marmion Street, EAST CARNARVON WA 6701",-24.86678000,113.67744000,WA,Wheelchair Access
,Carnarvon Woolshed,,"21 Robinson Street, CARNARVON WA 6701",-24.88398500,113.65616800,WA,Wheelchair Access
,Coral Bay Learning Centre,,"64 Banksia Drive, CORAL BAY WA 6701",-23.14537000,113.77220000,WA,
,Cue Primary School,,"Simpson Street, CUE WA 6640",-27.42035000,117.89736400,WA,
,Denham Hall,,"Cnr Hughes and Durlacher Street , DENHAM WA 6537",-25.92724200,113.53586700,WA,Wheelchair Access
,Exmouth Shire Hall,,"22 Maidstone Crescent, EXMOUTH WA 6707",-21.92916000,114.12375000,WA,Wheelchair Access
,Kalbarri District High School,,"Hackney Street, KALBARRI WA 6536",-27.71251000,114.16368000,WA,Wheelchair Access
,Meekatharra Shire Hall,,"Main Street, MEEKATHARRA WA 6642",-26.59301200,118.49575600,WA,
,Mount Magnet Anzac Memorial Hall,,"Naughton Street, MOUNT MAGNET WA 6638",-28.06254600,117.84958800,WA,
,Onslow Primary School,,"Simpson Street, ONSLOW WA 6710",-21.63809200,115.11027200,WA,Wheelchair Access
,Pannawonica Primary School,,"Sports Way, PANNAWONICA WA 6716",-21.63714000,116.32444000,WA,
,Paraburdoo Primary School,,"De Grey Road, PARABURDOO WA 6754",-23.19735900,117.67307200,WA,
,Tom Price Recreation Centre,,"Milpera Street, TOM PRICE WA 6751",-22.68754000,117.79325600,WA,Wheelchair Access
,Wiluna Remote Community School,,"Scotia Street, WILUNA WA 6646",-26.59865800,120.22723500,WA,Wheelchair Access
,150 St George's Terrace Perth,,"150 St George's Terrace, PERTH WA 6000",-31.95409,115.85597,WA,Wheelchair Access
,Aranmore Catholic College,,"41 Franklin Street, LEEDERVILLE WA 6007",-31.92706900,115.84317000,WA,Wheelchair Access
,Citiplace Community Centre,,"Wellington Street, PERTH WA 6000",-31.95131800,115.86090200,WA,Wheelchair Access
,East Perth Voting Centre,,"Shop 3/45 Royal Street, EAST PERTH WA 6004",-31.95332100,115.87812900,WA,Wheelchair Access
,Greek Orthodox Church,,"59 Carr Street, WEST PERTH WA 6005",-31.94016000,115.85201000,WA,Wheelchair Access
,Highgate Primary School,,"147 Lincoln Street, HIGHGATE WA 6003",-31.94067800,115.86678400,WA,Wheelchair Access
,Kyilla Primary School,,"4 Selkirk Street, NORTH PERTH WA 6006",-31.91928000,115.85170000,WA,Wheelchair Access
,Mount Hawthorn Baptist Church Hall,,"98 Hobart Street, MOUNT HAWTHORN WA 6016",-31.92174300,115.84189800,WA,Wheelchair Access
,Mount Hawthorn Community Centre Lesser Hall,,"197 Scarborough Beach Road, MOUNT HAWTHORN WA 6016",-31.91960300,115.83525700,WA,Wheelchair Access
,Mount Hawthorn Primary School,,"1 Killarney Street, MOUNT HAWTHORN WA 6016",-31.91777000,115.83547000,WA,Wheelchair Access
,North Metropolitan TAFE Leederville Campus,,"196-244 Richmond Street, LEEDERVILLE WA 6007",-31.93374000,115.84170000,WA,Wheelchair Access
,North Metropolitan TAFE Northbridge Campus,,"25 Aberdeen Street, NORTHBRIDGE WA 6003",-31.94788000,115.86136000,WA,
,North Perth Primary School,,"3 Albert Street, NORTH PERTH WA 6006",-31.92999800,115.85628400,WA,Wheelchair Access
,Baler Primary School,,"Baler Close, SOUTH HEDLAND WA 6722",-20.40474000,118.61282000,WA,Wheelchair Access
,Dampier Primary School,,"42 Church Road, DAMPIER WA 6713",-20.66449200,116.70715200,WA,Wheelchair Access
,Hedland Senior High School,,"78 Hamilton Road, SOUTH HEDLAND WA 6722",-20.39952000,118.59729000,WA,Wheelchair Access
,Karratha Primary School,,"40 Turner Way, KARRATHA WA 6714",-20.72930000,116.85881000,WA,Wheelchair Access
,Millars Well Primary School,,"45 Gawthorne Drive, KARRATHA WA 6714",-20.74246400,116.81750400,WA,Wheelchair Access
,Newman Primary School,,"Hilditch Avenue, NEWMAN WA 6753",-23.35440000,119.73163000,WA,Wheelchair Access
,Newman Senior High School,,"Gregory Avenue, NEWMAN WA 6753",-23.36146000,119.73377000,WA,Wheelchair Access
,PCYC Roebourne,,"1 Sholl Street, ROEBOURNE WA 6718",-20.76727500,117.14453500,WA,Wheelchair Access
,Port Hedland Primary School,,"Corney Street, PORT HEDLAND WA 6721",-20.30435000,118.63414000,WA,Wheelchair Access
,Tambrey Primary School,,"25 Tambrey Drive, KARRATHA WA 6714",-20.74238000,116.80094000,WA,Wheelchair Access
,Wickham Primary School,,"289 Tamarind Place, WICKHAM WA 6720",-20.68013000,117.14076000,WA,Wheelchair Access
,Banksia Park Primary School,,"2 Hicks Street, LEEMING WA 6149",-32.07211000,115.87495000,WA,Wheelchair Access
,Bull Creek Primary School,,"32 Hardy Street, BULL CREEK WA 6149",-32.06058000,115.86070000,WA,
,Herald Avenue Senior Citizens Centre,,"2 Herald Avenue, WILLETTON WA 6155",-32.03933100,115.88875100,WA,Wheelchair Access
,Oberthur Primary School,,"Nicholls Crescent, BULL CREEK WA 6149",-32.05924000,115.86920000,WA,Wheelchair Access
,RAAFA Estate - Bull Creek,,"12-18 Bull Creek Drive, BULL CREEK WA 6149",-32.04887000,115.85773000,WA,Wheelchair Access
,Riverton Primary School,,"255 Corinthian Road East, RIVERTON WA 6148",-32.03426000,115.89951000,WA,
,Rossmoyne Primary School,,"90 Second Avenue, ROSSMOYNE WA 6148",-32.04032000,115.86610000,WA,
,Rostrata Primary School,,"Rostrata Avenue, WILLETTON WA 6155",-32.05157000,115.89886000,WA,
,Shelley Primary School,,"Monota Avenue, SHELLEY WA 6148",-32.03154300,115.88556700,WA,Wheelchair Access
,Willetton Primary School,,"14 Woodpecker Avenue, WILLETTON WA 6155",-32.04889000,115.88279000,WA,
,Willetton Senior High School,,"120 Pinetree Gully Road, WILLETTON WA 6155",-32.06112000,115.87776000,WA,Wheelchair Access
,Bungaree Primary School,,"9 Centaurus Street, ROCKINGHAM WA 6168",-32.29065000,115.73766000,WA,Wheelchair Access
,Charthouse Primary School,,"43 Rand Avenue, WAIKIKI WA 6169",-32.31793000,115.75129000,WA,Wheelchair Access
,Cooloongup Primary School,,"21 Westerly Way, COOLOONGUP WA 6168",-32.29864100,115.75433900,WA,Wheelchair Access
,East Waikiki Primary School,,"21 Gibb Road, COOLOONGUP WA 6168",-32.30421900,115.76105900,WA,Wheelchair Access
,Hillman Primary School,,"35 Unnaro Street, HILLMAN WA 6168",-32.28340500,115.76301500,WA,Wheelchair Access
,Rockingham Beach Primary School,,"30 Bay View Street, ROCKINGHAM WA 6168",-32.28261100,115.72262900,WA,Wheelchair Access
,Rockingham Senior High School,,"15 Read Street, ROCKINGHAM WA 6168",-32.28423000,115.73628000,WA,Wheelchair Access
,Safety Bay Primary School,,"2 Waimea Road, SAFETY BAY WA 6169",-32.29819000,115.71408000,WA,Wheelchair Access
,Safety Bay Senior High School,,"80 Malibu Road, SAFETY BAY WA 6169",-32.30401000,115.74022000,WA,Wheelchair Access
,Bremer Bay Community Resource Centre,,"7 Mary Street, BREMER BAY WA 6338",-34.39236700,119.37907800,WA,Wheelchair Access
,Broomehill Town Hall,,"Great Southern Highway, BROOMEHILL WA 6318",-33.84518600,117.63860800,WA,Wheelchair Access
,Castletown Primary School,,"Easton Road, CASTLETOWN WA 6450",-33.83254000,121.90840000,WA,Wheelchair Access
,Condingup Primary School,,"Sutcliffe Street, CONDINGUP WA 6450",-33.75503000,122.52715000,WA,
,Cranbrook Memorial Hall,,"17 Gathorne Street, CRANBROOK WA 6321",-34.29598000,117.55379000,WA,
,Dumbleyung Town Hall,,"32 Harvey Street, DUMBLEYUNG WA 6350",-33.31300600,117.74034800,WA,Wheelchair Access
,Duranillin Hall,,"Horley Street, DURANILLIN WA 6393",-33.51527000,116.80215600,WA,
,East Narrogin Primary School,,"37-41 Homer Street, NARROGIN WA 6312",-32.93617600,117.18805100,WA,Wheelchair Access
,Esperance Senior Citizens Centre,,"183 Forrest Street, ESPERANCE WA 6450",-33.86020000,121.88900000,WA,Wheelchair Access
,Frankland River Community Centre,,"55 Wingebellup Road, FRANKLAND RIVER WA 6396",-34.36248900,117.08174100,WA,Wheelchair Access
,Gibson Football Club,,"Starr Street, GIBSON WA 6448",-33.64717800,121.80591900,WA,
,Gnowangerup Community Resource Centre,,"47 Yougenup Road, GNOWANGERUP WA 6335",-33.93695400,118.00737200,WA,Wheelchair Access
,Highbury Hall,,"Burley Street, HIGHBURY WA 6313",-33.05738000,117.23889000,WA,
,Hopetoun Community Centre,,"46 Veal Street, HOPETOUN WA 6348",-33.94480000,120.12960000,WA,Wheelchair Access
,Jerramungup District High School,,"2 Lancaster Road, JERRAMUNGUP WA 6337",-33.94272100,118.91785000,WA,Wheelchair Access
,Katanning Town Hall,,"16 Austral Terrace, KATANNING WA 6317",-33.69029100,117.55424500,WA,Wheelchair Access
,Kojonup Town Hall,,"95 Albany Highway, KOJONUP WA 6395",-33.83253200,117.15922200,WA,Wheelchair Access
,Lake Grace Community Resource Centre,,"Bishop Street, LAKE GRACE WA 6353",-33.10351600,118.45863700,WA,Wheelchair Access
,Lake King Primary School,,"Newdegate-Ravensthorpe Road, LAKE KING WA 6356",-33.08885400,119.67447700,WA,Wheelchair Access
,Munglinup Primary School,,"Budjan Street, MUNGLINUP WA 6450",-33.70402500,120.85820300,WA,
,Muradup Hall,,"Piesse Street, MURADUP WA 6394",-33.84114000,116.98181000,WA,
,Narrogin Senior Citizens Centre,,"1-3 Fathom Street, NARROGIN WA 6312",-32.93600000,117.17516800,WA,Wheelchair Access
,Newdegate Community Resource Centre,,"Collier Street, NEWDEGATE WA 6355",-33.09369900,119.02203500,WA,Wheelchair Access
,Nulsen Primary School,,"Victoria Street, ESPERANCE WA 6450",-33.85828800,121.87346800,WA,Wheelchair Access
,Nyabing Town Hall,,"14 Richmond Street, NYABING WA 6341",-33.54132300,118.14846900,WA,Wheelchair Access
,Ongerup Primary School,,"Lamont Street, ONGERUP WA 6336",-33.96344000,118.48653000,WA,
,Ravensthorpe District High School,,"102 Morgans Street, RAVENSTHORPE WA 6346",-33.58219800,120.05196100,WA,
,Tambellup Shire Lesser Hall,,"42 Norrish Street, TAMBELLUP WA 6320",-34.04417200,117.64131500,WA,Wheelchair Access
,Uniting Church - Wagin,,"8 Ranford Street, WAGIN WA 6315",-33.31029600,117.34206300,WA,Wheelchair Access
,West Arthur Community Resource Centre,,"27 Burrowes Street, DARKAN WA 6392",-33.33678000,116.74093700,WA,Wheelchair Access
,Williams RSL Hall,,"Growse Street, WILLIAMS WA 6391",-33.02587100,116.88115500,WA,Wheelchair Access
,Woodanilling Shire Hall,,"31 Robinson Road, WOODANILLING WA 6316",-33.56364700,117.43264700,WA,Wheelchair Access
,Deanmore Primary School,,"21 Deanmore Road, KARRINYUP WA 6018",-31.88303000,115.76725000,WA,Wheelchair Access
,Lake Gwelup Primary School,,"59 Porter Street, GWELUP WA 6018",-31.87106400,115.79724500,WA,Wheelchair Access
,Newborough Primary School,,"178 Newborough Street, KARRINYUP WA 6018",-31.88461400,115.78064800,WA,
,Osborne Park Voting Centre,,"Unit 3A/1 King Edward Road, OSBORNE PARK WA 6017",-31.90367200,115.80415100,WA,Wheelchair Access
,Scarborough Primary School,,"Hinderwell Street, SCARBOROUGH WA 6019",-31.89706200,115.76685600,WA,Wheelchair Access
,Uniting Church - Scarborough,,"121 Northstead Street, SCARBOROUGH WA 6019",-31.89060600,115.77257100,WA,Wheelchair Access
,Yuluma Primary School,,"21 Ambrose Street, INNALOO WA 6018",-31.89179700,115.78967300,WA,Wheelchair Access
,Challenger Reserve Pavillion,,"Challenger Avenue, MANNING WA 6152",-32.01731,115.87424,WA,Wheelchair Access
,Collier Primary School,,"17 Hobbs Avenue, COMO WA 6152",-31.99109800,115.87299600,WA,
,Como Primary School,,"206 Labouchere Road, COMO WA 6152",-31.99662000,115.86160000,WA,
,Curtin Primary School,,"20 Goss Avenue, MANNING WA 6152",-32.00809000,115.87378000,WA,
,John McGrath Pavilion,,"97 Hensman Street, SOUTH PERTH WA 6151",-31.98649500,115.86599700,WA,Wheelchair Access
,Kensington Primary School,,"73 Banksia Terrace, KENSINGTON WA 6151",-31.98142000,115.88292500,WA,
,South Perth Primary School,,"51 Forrest Street, SOUTH PERTH WA 6151",-31.98114500,115.85972400,WA,
,St Augustine's Church Hall,,"21 Cale Street, COMO WA 6152",-32.00345600,115.86267300,WA,
,St Pius X Parish Hall,,"23 Paterson Street, MANNING WA 6152",-32.01563000,115.86331000,WA,Wheelchair Access
,Uniting Church - South Perth,,"Angelo Street, SOUTH PERTH WA 6151",-31.98176000,115.86806000,WA,
,Ashburton Drive Primary School,,"6 Nullagine Way, GOSNELLS WA 6110",-32.08664000,115.98477000,WA,Wheelchair Access
,Bletchley Park Primary School,,"Balfour Street, SOUTHERN RIVER WA 6110",-32.10206000,115.94715000,WA,
,Caladenia Primary School,,"89 Boardman Road, CANNING VALE WA 6155",-32.07577000,115.93350000,WA,Wheelchair Access
,Campbell Primary School,,"161 Campbell Road, CANNING VALE WA 6155",-32.08827000,115.93101000,WA,Wheelchair Access
,Canning Vale College,,"26 Dumbarton Road, CANNING VALE WA 6155",-32.08287000,115.92209000,WA,Wheelchair Access
,Excelsior Primary School,,"63 Shreeve Road, CANNING VALE WA 6155",-32.08154200,115.94288200,WA,Wheelchair Access
,Gosnells Primary School,,"173 Hicks Street, GOSNELLS WA 6110",-32.07738700,116.00311900,WA,
,Huntingdale Primary School,,"85 Matilda Street, HUNTINGDALE WA 6110",-32.07718600,115.97263700,WA,Wheelchair Access
,Southern Grove Primary School,,"34 Lockway Street, SOUTHERN RIVER WA 6110",-32.09931400,115.95920400,WA,Wheelchair Access
,Wirrabirra Primary School,,"71 Corfield Street, GOSNELLS WA 6110",-32.07465400,115.98038900,WA,Wheelchair Access
,Anne Hamersley Primary School,,"16 Dunnett Drive, ELLENBROOK WA 6069",-31.74539600,116.00871700,WA,
,Arbor Grove Primary School,,"Brookmount Drive, ELLENBROOK WA 6069",-31.77024600,115.96257100,WA,Wheelchair Access
,Bullsbrook College,,"Chittering Road, BULLSBROOK WA 6084",-31.66158000,116.03378000,WA,Wheelchair Access
,Chidlow Primary School,,"450 Lilydale Road, CHIDLOW WA 6556",-31.85702000,116.26828000,WA,Wheelchair Access
,Ellen Stirling Primary School,,"23 Strathmore Parkway, ELLENBROOK WA 6069",-31.77022100,115.97528400,WA,
,Gidgegannup Shire Hall,,"Lot 210 Toodyay Road, GIDGEGANNUP WA 6083",-31.79124800,116.20137600,WA,
,Herne Hill Primary School,,"60 Argyle Street, HERNE HILL WA 6056",-31.82956100,116.02365000,WA,
,Malvern Springs Primary School,,"3 Chandala Turn, ELLENBROOK WA 6069",-31.75782400,115.97997100,WA,
,Mount Helena Recreation Centre,,"Keane Street East, MT HELENA WA 6082",-31.87529600,116.22059700,WA,
,Sawyers Valley Primary School,,"235 Sawyers Road, SAWYERS VALLEY WA 6074",-31.90170200,116.20362900,WA,
,Upper Swan Primary School,,"1204 Great Northern Highway, UPPER SWAN WA 6069",-31.78697000,116.02396000,WA,Wheelchair Access
,Wooroloo Primary School,,"Wade Street, WOOROLOO WA 6558",-31.80383900,116.31226900,WA,
,Addie Mills Centre,,"2 Astley Street, GOSNELLS WA 6110",-32.07107000,116.00349000,WA,Wheelchair Access
,East Maddington Primary School,,"79 Pitchford Avenue, MADDINGTON WA 6109",-32.05484000,116.00380000,WA,Wheelchair Access
,Forest Crescent Primary School,,"83 Forest Crescent, THORNLIE WA 6108",-32.07609000,115.94922000,WA,Wheelchair Access
,Maddington Primary School,,"1951 Albany Highway, MADDINGTON WA 6109",-32.05413000,115.98710000,WA,
,Thornlie Primary School,,"86 Thornlie Avenue, THORNLIE WA 6108",-32.05349200,115.96515800,WA,
,Thornlie Senior High School,,"2 Ovens Road, THORNLIE WA 6108",-32.06503000,115.96006000,WA,Wheelchair Access
,Yale Primary School,,"Sage Road, THORNLIE WA 6108",-32.05000700,115.95177200,WA,Wheelchair Access
,Yule Brook College,,"61 Dellar Road, MADDINGTON WA 6109",-32.04815000,116.00851000,WA,
,Acton Park Hall,,"804 Acton Park Road, ACTON PARK WA 6280",-33.76749100,115.38091000,WA,
,Busselton Primary School,,"23-25 Avocet Boulevard, BUSSELTON WA 6280",-33.64003000,115.37683000,WA,Wheelchair Access
,Busselton Senior High School,,"136-156 Bussell Highway, BUSSELTON WA 6280",-33.65734000,115.32464000,WA,
,Cape Naturaliste College,,"30 Vasse Yallingup Siding Road, VASSE WA 6280",-33.67777800,115.24555600,WA,Wheelchair Access
,Churchill Park Hall,,"Adelaide Street, BUSSELTON WA 6280",-33.64666200,115.35029000,WA,
,Cowaramup Primary School,,"24 Waverley Road, COWARAMUP WA 6284",-33.85128100,115.10690600,WA,Wheelchair Access
,Georgiana Molloy Anglican School,,"2 Hawker Approach, YALYALUP WA 6280",-33.66160000,115.38220000,WA,Wheelchair Access
,Lady of the Cape Primary School,,"245 Cape Naturaliste Road, DUNSBOROUGH WA 6281",-33.59792600,115.08956500,WA,
,Naturaliste Community Centre,,"21 Dunsborough Lakes Drive, DUNSBOROUGH WA 6281",-33.62105900,115.10513800,WA,Wheelchair Access
,Rosa Brook Hall,,"Rosa Brook Road, ROSA BROOK WA 6285",-33.94040900,115.19790300,WA,
,West Busselton Primary School,,"11-17 Bower Road, BUSSELTON WA 6280",-33.65457000,115.31450000,WA,Wheelchair Access
,Yallingup Hall,,"2305 Caves Road, YALLINGUP WA 6282",-33.64654000,115.03425600,WA,
,Bentley Baptist Church,,"59 Chapman Road, BENTLEY WA 6102",-32.00795200,115.91638900,WA,Wheelchair Access
,Bentley Community Centre,,"Nyamup Way, BENTLEY WA 6102",-32.00991900,115.91012800,WA,Wheelchair Access
,Carlisle Memorial Hall,,"2 Memorial Avenue, CARLISLE WA 6101",-31.98106200,115.91231800,WA,Wheelchair Access
,Connect Victoria Park Inc,,"5 Mackie Street, VICTORIA PARK WA 6100",-31.97214000,115.89363300,WA,
,East Victoria Park Primary School,,"28-30 Beatty Avenue, EAST VICTORIA PARK WA 6101",-31.97937700,115.90798500,WA,Wheelchair Access
,Handa Hall (within Perron Place),,"61 Kitchener Avenue, VICTORIA PARK WA 6100",-31.97123900,115.90111500,WA,Wheelchair Access
,Kent Street Senior High School,,"89 Kent Street, EAST VICTORIA PARK WA 6101",-31.98510000,115.89201000,WA,
,Lathlain Primary School,,"120 Howick Street, LATHLAIN WA 6100",-31.96997300,115.90828000,WA,Wheelchair Access
,Leisurelife Centre,,"Cnr  Gloucester &  Kent Streets, EAST VICTORIA PARK WA 6101",-31.98387000,115.89903000,WA,Wheelchair Access
,Millen Primary School,,"Playfield Street, EAST VICTORIA PARK WA 6101",-31.99754000,115.90233000,WA,
,Swan Village of Care,,"26 Plantation Drive, BENTLEY WA 6102",-32.00381400,115.90087300,WA,
,Wilson Primary School,,"60 Armstrong Road, WILSON WA 6107",-32.01726000,115.91132000,WA,
,Banksia Grove Primary School,,"14 Viridian Drive, BANKSIA GROVE WA 6031",-31.70206000,115.80887000,WA,Wheelchair Access
,Carramar Primary School,,"71 Houghton Drive, CARRAMAR WA 6031",-31.71166000,115.78508000,WA,Wheelchair Access
,Crossways Uniting Church,,"Calabrese Avenue, WANNEROO WA 6065",-31.77924000,115.80791000,WA,Wheelchair Access
,Joseph Banks Secondary College,,"40 Joseph Banks Boulevard, BANKSIA GROVE WA 6031",-31.69895900,115.79714700,WA,Wheelchair Access
,Spring Hill Primary School,,"50 Spring Hill Street, TAPPING WA 6065",-31.72371300,115.79189300,WA,Wheelchair Access
,St Anthony's School,,"7 Servite Terrace, WANNEROO WA 6065",-31.74929000,115.80454000,WA,Wheelchair Access
,Tapping Primary School,,"87 St Stephens Crescent, TAPPING WA 6065",-31.71530400,115.79272500,WA,Wheelchair Access
,Wanneroo Recreation Centre,,"275 Scenic Drive, WANNEROO WA 6065",-31.75362800,115.79499300,WA,Wheelchair Access
,Wanneroo Secondary College,,"56 Quarkum Street, WANNEROO WA 6065",-31.75772000,115.81400000,WA,
,Coastal Community Centre,,"Tangadee Road, GOLDEN BAY WA 6174",-32.424137,115.756493,WA,Wheelchair Access
,Comet Bay College,,"2 Allatoona Avenue, SECRET HARBOUR WA 6173",-32.41570000,115.76461000,WA,
,Koorana Primary School,,"109 Coronata Drive, WARNBRO WA 6169",-32.34276200,115.76481400,WA,Wheelchair Access
,Port Kennedy Primary School,,"1 La Manche Avenue, PORT KENNEDY WA 6172",-32.35881100,115.75581600,WA,
,Rockingham Lakes Primary School,,"26 Laguardia Loop , PORT KENNEDY WA 6172",-32.35797800,115.76787500,WA,Wheelchair Access
,Secret Harbour Community Hall,,"4 Oasis Drive, SECRET HARBOUR WA 6173",-32.409313,115.758064,WA,Wheelchair Access
,Singleton Primary School,,"Naval Avenue, SINGLETON WA 6175",-32.43997700,115.75727500,WA,
,Warnbro Community High School,,"2 Swallowtail Parade, WARNBRO WA 6169",-32.34541600,115.75787500,WA,Wheelchair Access
,Warnbro Primary School,,"45 Axminster Street, WARNBRO WA 6169",-32.33507300,115.75462500,WA,Wheelchair Access
,Augusta Community Resource Centre,,"66 Allnutt Terrace, AUGUSTA WA 6290",-34.31411000,115.15629000,WA,Wheelchair Access
,Balingup Primary School,,"Steere Street, BALINGUP WA 6253",-33.78680500,115.98215900,WA,Wheelchair Access
,Boyup Brook Town Hall,,"55 Abel Street, BOYUP BROOK WA 6244",-33.83215200,116.38644100,WA,Wheelchair Access
,Denmark Recreation Centre,,"Brazier Street, DENMARK WA 6333",-34.96724100,117.35922700,WA,Wheelchair Access
,Greenbushes Primary School,,"7 Blackwood Road, GREENBUSHES WA 6254",-33.85110000,116.05913000,WA,Wheelchair Access
,Karridale Primary School,,"12612 Bussell Highway, KARRIDALE WA 6288",-34.21807000,115.09600000,WA,
,Kendenup Agricultural Pavilion,,"150 Beverley Road, KENDENUP WA 6323",-34.49088300,117.59395100,WA,
,Manjimup Town Hall,,"37 Rose Street, MANJIMUP WA 6258",-34.24096300,116.14512700,WA,
,Margaret River Senior High School,,"158 Bussell Highway, MARGARET RIVER WA 6285",-33.95475000,115.07344000,WA,Wheelchair Access
,Mayanup Hall,,"9 Boyup Brook-Cranbrook Road, MAYANUP WA 6244",-33.93213000,116.45262000,WA,
,Nannup RSL Hall,,"7 Cross Street, NANNUP WA 6275",-33.97948800,115.76521700,WA,
,Narrikup District Hall,,"Beech Road, NARRIKUP WA 6326",-34.77251000,117.70245000,WA,
,Northcliffe District High School,,"103 Zamia Street, NORTHCLIFFE WA 6262",-34.63330000,116.11805000,WA,
,Parryville Hall,,"2830 South Coast Highway, PARRYVILLE WA 6333",-34.99210700,117.18792200,WA,
,Pemberton Sports Club,,"1 Club Road, PEMBERTON WA 6260",-34.44673000,116.02794000,WA,
,Plantagenet District Hall,,"Memorial Road, MOUNT BARKER WA 6324",-34.62467000,117.66271000,WA,Wheelchair Access
,Porongurup District Hall,,"2272 Porongurup Road, PORONGURUP WA 6324",-34.67380300,117.90638700,WA,
,Scotsdale Hall,,"Walter Road, SCOTSDALE WA 6333",-34.92911000,117.30160000,WA,
,St Brigid's Parish Hall,,"130 Roe Street, BRIDGETOWN WA 6255",-33.95789100,116.14053600,WA,
,Tingledale Hall,,"976 Valley of the Giants Road, TINGLEDALE WA 6333",-34.95693000,116.88998000,WA,
,Walpole Community Centre,,"Latham Street, WALPOLE WA 6398",-34.97766300,116.73252300,WA,
,Witchcliffe Druids Hall,,"10418 Bussell Highway, WITCHCLIFFE WA 6286",-34.02562300,115.09997800,WA,
,Yornup Hall,,"South Western Highway, YORNUP WA 6256",-34.05297000,116.16863000,WA,
,Ballajura Community College,,"Illawarra Crescent South (cnr Cassowary Road), BALLAJURA WA 6066",-31.84520000,115.89092000,WA,Wheelchair Access
,Ballajura Primary School,,"175 Illawarra Crescent South, BALLAJURA WA 6066",-31.83563000,115.89154000,WA,Wheelchair Access
,Caversham Primary School,,"65 Coast Road, WEST SWAN WA 6055",-31.85800900,115.98333100,WA,Wheelchair Access
,Ellenbrook Secondary College,,"100 Main Street, ELLENBROOK WA 6069",-31.78475000,115.96527000,WA,
,GraceLife Church,,"66 Woodlake Boulevard, ELLENBROOK WA 6069",-31.79115000,115.97432700,WA,Wheelchair Access
,Illawarra Primary School,,"Illawarra Crescent North, BALLAJURA WA 6066",-31.82825000,115.88183000,WA,
,South Ballajura Primary School,,"2-34 Wyperfeld Gardens, BALLAJURA WA 6066",-31.84942000,115.91095700,WA,
,Swan Valley Anglican Community School,,"Swanleigh Parade, AVELEY WA 6069",-31.79450000,115.98633000,WA,Wheelchair Access
,Bibra Lake Primary School,,"29 Annois Road, BIBRA LAKE WA 6163",-32.09420000,115.83978000,WA,Wheelchair Access
,Caralee Community School,,"24 Winnacott Street, WILLAGEE WA 6156",-32.05156000,115.80500000,WA,
,Coolbellup Community School,,"15 Waverley Road, COOLBELLUP WA 6163",-32.08217000,115.80867000,WA,Wheelchair Access
,Newton Primary School,,"4 Marvell Avenue, SPEARWOOD WA 6163",-32.11146000,115.78898000,WA,Wheelchair Access
,North Lake Senior Campus,,"188-200 Winterfold Road, KARDINYA WA 6163",-32.07395000,115.81405000,WA,
,Samson Primary School,,"22 Lawrence Way, SAMSON WA 6163",-32.07271000,115.80273000,WA,
,South Lake Primary School,,"62 Mason Court, SOUTH LAKE WA 6164",-32.10552000,115.83457000,WA,Wheelchair Access
,Southern Districts Senior Centre,,"Cnr North Lake Road and Archibald Street , WILLAGEE WA 6156",-32.05357400,115.81493000,WA,Wheelchair Access
,St Michael Church,,"15 Mell Road, SPEARWOOD WA 6163",-32.11016000,115.77676900,WA,
