ec_id,Premise Name,Polling Place Name,Address,City,State,Postcode,Location Within Premise,Disabled Access,Premise Latitude,Premise Longitude,Division,Dual polling place,Vision impaired voting service
,Blackmans Bay Primary School,Blackmans Bay Primary School,"177 Roslyn Ave,",Blackmans Bay,TAS,7052,,With Assistance,-42.996938,147.3212188,Franklin,,
,Beaconsfield Senior Citizens' Hall,Beaconsfield Senior Citizens' Hall,"Weld St,",BEACONSFIELD,TAS,7270,Beaconsfield Community Centre,With Assistance,-41.202855,146.81868,Bass,,
,Beauty Point Uniting Church Hall,Beauty Point Uniting Church Hall,"7 Beatty St,",BEAUTY POINT,TAS,7270,,With Assistance,-41.148875,146.8174034,Bass,,
,Branxholm Community Hall,Branxholm Community Hall,"Stoke St,",BRANXHOLM,TAS,7261,,None,-41.16713,147.73628,Bass,,
,Bridport Hall,Bridport Hall,"Main St,",BRIDPORT,TAS,7262,,With Assistance,-41.00278,147.3948,Bass,,
,Dilston War Memorial Hall,Dilston War Memorial Hall,"308 John Lees Dr,",DILSTON,TAS,7252,,With Assistance,-41.33693,147.08171,Bass,Yes,
,East Launceston Primary School - P&F Assoc.,East Launceston Primary School - P&F Assoc.,"Oxford St,",EAST LAUNCESTON,TAS,7250,pavilion site,With Assistance,-41.44152,147.15203,Bass,,
,Exeter High School,Exeter High School,"28 Glen Ard Mohr Rd,",EXETER,TAS,7275,gymnasium,With Assistance,-41.30062,146.95752,Bass,,
,George Town Memorial Hall,George Town Memorial Hall,"29-67 Macquarie St,",GEORGE TOWN,TAS,7253,,With Assistance,-41.10686,146.82194,Bass,Yes,
,George Town South Primary School,George Town South Primary School,"48-70 Franklin St,",GEORGE TOWN,TAS,7253,,With Assistance,-41.1126,146.83307,Bass,Yes,
,Gladstone Hall,Gladstone Hall,"1 Carr St,",GLADSTONE,TAS,7264,,With Assistance,-40.96024,148.00863,Bass,,
,St Canice Church Hall,St Canice Church Hall,"33 Glengarry Rd,",GLENGARRY,TAS,7275,,With Assistance,-41.33496863,146.8706875,Bass,,
,Gravelly Beach Main Hall,Gravelly Beach Main Hall,"Edinburgh Park, off Gravelly Beach Rd,",GRAVELLY BEACH,TAS,7276,,With Assistance,-41.28332,146.97134,Bass,,
,Hillwood Memorial Hall,Hillwood Memorial Hall,"280 Jetty Rd,",HILLWOOD,TAS,7252,,With Assistance,-41.23623,146.97495,Bass,Yes,
,Invermay Primary School,Invermay Primary School,"35-43 Mayne St,",INVERMAY,TAS,7248,also via Holbrook St,With Assistance,-41.42136,147.1316,Bass,Yes,
,St Finn Barr's School,St Finn Barr's School,"247 Invermay Rd,",INVERMAY,TAS,7248,,With Assistance,-41.41565,147.13195,Bass,Yes,
,Karoola Hall,Karoola Hall,"1126 Pipers River Rd,",KAROOLA,TAS,7267,,With Assistance,-41.25423,147.14806,Bass,Yes,
,Kelso Community Centre,Kelso Community Centre,"Foreshore Rd,",KELSO,TAS,7270,,With Assistance,-41.10353,146.79368,Bass,,
,Y.M.C.A. Centre,Y.M.C.A. Centre,"8a Blaydon St,",KINGS MEADOWS,TAS,7249,,With Assistance,-41.46782,147.15942,Bass,,
,Lady Barron Memorial Hall,Lady Barron Memorial Hall,"Main Rd,",LADY BARRON,TAS,7255,,With Assistance,-40.2110674,148.2398061,Bass,,
,Chalmers Hall,Chalmers Hall,"163 St John St,",LAUNCESTON,TAS,7250,,With Assistance,-41.440961,147.142126,Bass,,
,Pilgrim Hall,Pilgrim Hall,"Pilgrim Uniting Church, 36 Paterson St,",LAUNCESTON,TAS,7250,,None,-41.43659,147.13718,Bass,,
,Lebrina Memorial Hall,Lebrina Memorial Hall,"905 Golconda Rd,",LEBRINA,TAS,7254,,With Assistance,-41.1776544,147.2273484,Bass,Yes,
,Legana Memorial Hall,Legana Memorial Hall,"43 Fulton St,",LEGANA,TAS,7277,,With Assistance,-41.36317,147.04658,Bass,,
,Lilydale Memorial Hall,Lilydale Memorial Hall,"1949 Main Rd,",LILYDALE,TAS,7268,,None,-41.25235,147.21586,Bass,Yes,
,Launceston Church Grammar School,Launceston Church Grammar School,"Button St,",MOWBRAY,TAS,7248,Sinclair Trust Tower Building,With Assistance,-41.40867,147.12816,Bass,Yes,
,Launceston North Uniting Church,Launceston North Uniting Church,"128 George Town Rd,",NEWNHAM,TAS,7248,,With Assistance,-41.38729,147.12779,Bass,Yes,Yes
,Police Citizens & Youth Club,Police Citizens & Youth Club,"148 Abbott St,",NEWSTEAD,TAS,7250,"basketball court, entrance off Wentworth St",With Assistance,-41.4470206,147.1572394,Bass,,
,Norwood Primary School,Norwood Primary School,"103 Norwood Ave,",NORWOOD,TAS,7250,hall,With Assistance,-41.46282,147.17329,Bass,,
,Nunamara Hall,Nunamara Hall,"39461 Tasman Hwy,",NUNAMARA,TAS,7259,,With Assistance,-41.3948,147.29453,Bass,Yes,
,Pipers River Fire Station,Pipers River Fire Station,"76 School Rd,",PIPERS RIVER,TAS,7252,,With Assistance,-41.10039,147.09152,Bass,Yes,
,St Patricks College,St Patricks College,"282 Westbury Rd,",PROSPECT,TAS,7250,Barrett Gymnasium,With Assistance,-41.47301,147.12638,Bass,,
,Ravenswood Heights Primary School,Ravenswood Heights Primary School,"27 Prossers Forest Rd,",RAVENSWOOD,TAS,7250,gymnasium,With Assistance,-41.41627,147.17662,Bass,Yes,
,Ringarooma Hall,Ringarooma Hall,"Charles St,",RINGAROOMA,TAS,7263,,With Assistance,-41.24219,147.73579,Bass,,
,Riverside High School,Riverside High School,"354 West Tamar Hwy,",RIVERSIDE,TAS,7250,gymnasium,With Assistance,-41.40874,147.09891,Bass,,
,Brooks High School,Brooks High School,"215 George Town Rd,",ROCHERLEA,TAS,7248,,With Assistance,-41.37763,147.12155,Bass,Yes,
,St Barnabas' Church Hall,St Barnabas' Church Hall,"55 King St,",SCOTTSDALE,TAS,7260,,None,-41.1623,147.51498,Bass,,
,Sidmouth Community Centre,Sidmouth Community Centre,"255 Batman Hwy,",SIDMOUTH,TAS,7270,,With Assistance,-41.22195,146.88767,Bass,,
,Launceston RSL,Launceston RSL,"313-315 Wellington St,",SOUTH LAUNCESTON,TAS,7249,Flanders Room,With Assistance,-41.45287,147.14401,Bass,,
,St Mark's Church Hall,St Mark's Church Hall,"6 Hobart Rd,",SOUTH LAUNCESTON,TAS,7249,,With Assistance,-41.45903,147.1537,Bass,,
,St Leonards Primary School,St Leonards Primary School,"330-342 St Leonards Rd,",ST LEONARDS,TAS,7250,"Roberts Room, car park access via Station Rd",With Assistance,-41.4597,147.20031,Bass,Yes,
,Summerdale Community Centre,Summerdale Community Centre,"82-84 Stanley St,",SUMMERHILL,TAS,7250,,With Assistance,-41.46768,147.13,Bass,,
,Trevallyn Life Church,Trevallyn Life Church,"34 Pitt Ave,",TREVALLYN,TAS,7250,auditorium,With Assistance,-41.43059,147.10612,Bass,,
,Trevallyn Primary School,Trevallyn Primary School,"55 Gorge Rd,",TREVALLYN,TAS,7250,multipurpose room,Full,-41.43784,147.11397,Bass,,
,Waverley Primary School,Waverley Primary School,"6 Naroo St,",WAVERLEY,TAS,7250,,With Assistance,-41.43332,147.19002,Bass,Yes,
,West Launceston Primary School,West Launceston Primary School,"24-38 Basin Rd,",WEST LAUNCESTON,TAS,7250,,With Assistance,-41.44964,147.1285,Bass,,
,Weymouth Hall,Weymouth Hall,"18 Major St,",WEYMOUTH,TAS,7252,,With Assistance,-41.01518,147.15443,Bass,Yes,
,Whitemark Lions Club,Whitemark Lions Club,"James St,",WHITEMARK,TAS,7255,,With Assistance,-40.1217,148.01827,Bass,,
,Winnaleah Memorial Hall,Winnaleah Memorial Hall,"20 Main St,",WINNALEAH,TAS,7263,,None,-41.09807,147.82404,Bass,,
,Youngtown Primary School,Youngtown Primary School,"Cnr Victoria & Napier St,",YOUNGTOWN,TAS,7249,general purpose hall,With Assistance,-41.48235,147.16386,Bass,,
,Burnie Child and Family Centre,Burnie Child and Family Centre,"36 Thorne St,",ACTON,TAS,7320,hall,With Assistance,-41.07219,145.89258,Braddon,,
,Boat Harbour Primary School,Boat Harbour Primary School,"17386 Bass Hwy,",BOAT HARBOUR,TAS,7321,hall,With Assistance,-40.94507,145.63715,Braddon,,
,Burnie City Council Offices,Burnie City Council Offices,"80 Wilson St,",BURNIE,TAS,7320,atrium on ground floor,With Assistance,-41.05317,145.90595,Braddon,,
,Calder Hall,Calder Hall,"1320 Calder Rd,",CALDER,TAS,7325,main area,None,-41.06851,145.63121,Braddon,,
,Cooee Primary School,Cooee Primary School,"Bass Hwy,",COOEE,TAS,7320,multipurpose room,With Assistance,-41.040894,145.868525,Braddon,,
,Currie Town Hall,Currie Town Hall,"Cnr Meech & George Sts,",CURRIE,TAS,7256,supper room,With Assistance,-39.92984,143.85416,Braddon,,
,Nixon St Primary School,Nixon St Primary School,"60 Nixon St,",DEVONPORT,TAS,7310,gymnasium,With Assistance,-41.17252,146.33886,Braddon,,
,Reece High School,Reece High School,"41-43 Middle Rd,",DEVONPORT,TAS,7310,staff room,With Assistance,-41.18904,146.35208,Braddon,,
,St Johns Parish Hall,St Johns Parish Hall,"Fenton St,",DEVONPORT,TAS,7310,,With Assistance,-41.179,146.35829,Braddon,,Yes
,TasTafe,TasTafe,"20-36 Valley Rd,",DEVONPORT,TAS,7310,canteen,With Assistance,-41.18583,146.34549,Braddon,,
,Don Memorial Hall,Don Memorial Hall,"17 Forth Rd,",DON,TAS,7310,,With Assistance,-41.18256,146.31804,Braddon,,
,East Devonport Primary School,East Devonport Primary School,"19-31 Thomas St,",EAST DEVONPORT,TAS,7310,multipurpose room,With Assistance,-41.17836,146.37111,Braddon,,
,Edith Creek Primary School,Edith Creek Primary School,"1282 Trowutta Rd,",EDITH CREEK,TAS,7330,foyer,With Assistance,-40.96994,145.09329,Braddon,,
,Elliott Community Centre,Elliott Community Centre,"829 Murchison Hwy,",ELLIOTT,TAS,7325,main hall,None,-41.09211,145.78229,Braddon,,
,Forest Primary School,Forest Primary School,"422 Mengha Rd,",FOREST,TAS,7330,multipurpose room,With Assistance,-40.84865,145.24893,Braddon,,
,Forth Primary School,Forth Primary School,"45 Wilmot Rd,",FORTH,TAS,7310,multipurpose room,With Assistance,-41.1934,146.24928,Braddon,,
,Gawler Hall,Gawler Hall,"15 Top Gawler Rd,",GAWLER,TAS,7315,,With Assistance,-41.18548,146.16007,Braddon,,
,Grassy Club,Grassy Club,"Grassy Rd,",GRASSY,TAS,7256,main entertainment room,None,-40.04842,144.05795,Braddon,,
,Havenview Primary School,Havenview Primary School,"15 Marriott St,",HAVENVIEW,TAS,7320,multipurpose room/hall,With Assistance,-41.08346,145.91081,Braddon,,
,Blythe Heads Hall,Blythe Heads Hall,"1 Sice Ave,",HEYBRIDGE,TAS,7316,,With Assistance,-41.07515,145.98616,Braddon,,
,Highclere Community Centre,Highclere Community Centre,"1558 Ridgley Hwy,",HIGHCLERE,TAS,7321,front of hall,None,-41.19046,145.8061,Braddon,,
,Irishtown Sports Complex,Irishtown Sports Complex,"602 Irishtown Rd,",IRISHTOWN,TAS,7330,,None,-40.91220617,145.1442312,Braddon,,
,Latrobe Primary School,Latrobe Primary School,"23 Lewis St,",LATROBE,TAS,7307,"Enrichment Centre, Bradshaw St",With Assistance,-41.23912,146.41612,Braddon,,
,Marrawah Memorial Hall,Marrawah Memorial Hall,"844 Comeback Rd,",MARRAWAH,TAS,7330,,With Assistance,-40.92299,144.69693,Braddon,,
,Melrose Memorial Hall,Melrose Memorial Hall,"673 Melrose Rd,",MELROSE,TAS,7310,,With Assistance,-41.24155,146.28875,Braddon,,
,Montello Primary School,Montello Primary School,"83 Bird St,",MONTELLO,TAS,7320,hall,With Assistance,-41.05996,145.89764,Braddon,,
,Moorleah Community Centre,Moorleah Community Centre,"720 Preolenna Rd,",MOORLEAH,TAS,7321,main hall,With Assistance,-40.98099,145.61629,Braddon,,
,Moriarty Hall,Moriarty Hall,"1 Bonneys La,",MORIARTY,TAS,7307,,With Assistance,-41.217,146.48104,Braddon,,
,Natone Primary School,Natone Primary School,"100 Upper Natone Rd,",NATONE,TAS,7321,front entrance foyer,With Assistance,-41.17022,145.92209,Braddon,,
,North Motton Hall,North Motton Hall,"578 Preston Rd,",NORTH MOTTON,TAS,7315,,With Assistance,-41.20705,146.10952,Braddon,,
,Penguin Uniting Church Hall,Penguin Uniting Church Hall,"50 Main Rd,",PENGUIN,TAS,7316,,With Assistance,-41.11192,146.07072,Braddon,,
,Port Sorell Memorial Hall,Port Sorell Memorial Hall,"Cnr Darling and Meredith Sts,",PORT SORELL,TAS,7307,,With Assistance,-41.16525,146.5558,Braddon,,
,Preston Community Centre,Preston Community Centre,"1833 Preston Rd,",PRESTON,TAS,7315,office,With Assistance,-41.29604,146.06239,Braddon,,
,West Coast Community Services Hub,West Coast Community Services Hub,"Hunter St,",QUEENSTOWN,TAS,7467,large training room,None,-42.078921,145.556024,Braddon,,
,Riana Community Centre,Riana Community Centre,"1221 Pine Rd,",RIANA,TAS,7316,hall,None,-41.2015,145.99908,Braddon,,
,Ridgley Primary School,Ridgley Primary School,"904 Ridgley Hwy,",RIDGLEY,TAS,7321,multipurpose room,With Assistance,-41.13937,145.83787,Braddon,,
,Rocky Cape Public Hall,Rocky Cape Public Hall,"19074 Bass Hwy,",ROCKY CAPE,TAS,7321,supper room,With Assistance,-40.90489,145.48664,Braddon,,
,Romaine Park Primary School,Romaine Park Primary School,"Cnr Roslyn Ave and Mount St,",ROMAINE,TAS,7320,multipurpose room,With Assistance,-41.07761,145.90144,Braddon,,
,Rosebery Neighbourhood Centre,Rosebery Neighbourhood Centre,"8 Agnes St,",ROSEBERY,TAS,7470,"back room, entrance via carpark",With Assistance,-41.78006,145.53919,Braddon,,
,Sassafras Primary School,Sassafras Primary School,"50 School Rd,",SASSAFRAS,TAS,7307,gym/hall,With Assistance,-41.28689,146.50295,Braddon,,
,Hellyer College,Hellyer College,"41-43 Mooreville Rd,",SHOREWELL PARK,TAS,7320,Cafeteria K Block,None,-41.06122,145.88163,Braddon,,
,Sisters Beach Fire Station,Sisters Beach Fire Station,"Honeysuckle Ave,",SISTERS BEACH,TAS,7325,fire station office,None,-40.91818,145.56498,Braddon,,
,Myalla Community Centre,Myalla Community Centre,"Myalla Recreation Ground, 29 Myalla Rd,",SISTERS CREEK,TAS,7321,,None,-40.964713,145.573222,Braddon,,
,Smithton Primary School,Smithton Primary School,"27- 43 Grant St,",SMITHTON,TAS,7330,assembly hall,Full,-40.84289,145.12672,Braddon,,
,Somerset Primary School,Somerset Primary School,"30A Beaufort St,",SOMERSET,TAS,7322,multipurpose room,With Assistance,-41.03815,145.82063,Braddon,,
,South Riana Hall,South Riana Hall,"776 South Riana Rd,",SOUTH RIANA,TAS,7316,,With Assistance,-41.23446,145.97709,Braddon,,
,Sprent Primary School,Sprent Primary School,"1245 Castra Rd,",SPRENT,TAS,7315,main hall,With Assistance,-41.26221,146.15948,Braddon,,
,Spreyton Primary School,Spreyton Primary School,"1 Mersey Main Rd,",SPREYTON,TAS,7310,multipurpose room,With Assistance,-41.21202,146.34454,Braddon,,
,Stanley Primary School,Stanley Primary School,"Wilson St,",STANLEY,TAS,7330,multipurpose room,With Assistance,-40.7595,145.29099,Braddon,,
,Stowport Public Hall,Stowport Public Hall,"580 Stowport Rd,",STOWPORT,TAS,7321,main area,With Assistance,-41.11224,145.92863,Braddon,,
,Strahan Primary School,Strahan Primary School,"2 Bay St,",STRAHAN,TAS,7468,,With Assistance,-42.153392,145.320432,Braddon,,
,Sulphur Creek Hall,Sulphur Creek Hall,"310 Preservation Dr,",SULPHUR CREEK,TAS,7316,kitchen,With Assistance,-41.09328,146.02373,Braddon,,
,Tullah Community Hall,Tullah Community Hall,"Farrell St,",TULLAH,TAS,7321,,None,-41.737851,145.616967,Braddon,,
,Turners Beach Community Centre,Turners Beach Community Centre,"Henry St,",TURNERS BEACH,TAS,7315,main hall,With Assistance,-41.15871,146.2447,Braddon,,
,East Ulverstone Primary School,East Ulverstone Primary School,"18 Crawford St,",ULVERSTONE,TAS,7315,multipurpose room,With Assistance,-41.15494,146.19089,Braddon,,
,Ulverstone Secondary College,Ulverstone Secondary College,"38 Leven St,",ULVERSTONE,TAS,7315,multipurpose hall,With Assistance,-41.16199,146.17143,Braddon,,
,Ulverstone Senior Citizens Club,Ulverstone Senior Citizens Club,"16 King Edward St,",ULVERSTONE,TAS,7315,main area,With Assistance,-41.155037,146.171973,Braddon,,
,Waratah Municipal Chambers,Waratah Municipal Chambers,"12-14 Smith St,",WARATAH,TAS,7321,Council Chambers,With Assistance,-41.44462,145.53128,Braddon,,
,Andrews Creek Primary School,Andrews Creek Primary School,"20 Westwind Dr,",WESLEY VALE,TAS,7307,bottom classroom,With Assistance,-41.1887792,146.4562247,Braddon,,
,West Ulverstone Primary School,West Ulverstone Primary School,"34 Maud St,",WEST ULVERSTONE,TAS,7315,"hall, Josephine St Entrance",With Assistance,-41.14851,146.15899,Braddon,,
,Wivenhoe Campus Leighland Christian School,Wivenhoe Campus Leighland Christian School,"Stowport Rd,",WIVENHOE,TAS,7320,foyer area outside library,With Assistance,-41.06907,145.93613,Braddon,,
,Wynyard High School,Wynyard High School,"30 Church St,",WYNYARD,TAS,7325,student centre,With Assistance,-40.98684,145.71684,Braddon,,
,Wynyard Senior Citizens Clubrooms,Wynyard Senior Citizens Clubrooms,"28 Jackson St,",WYNYARD,TAS,7325,entrance foyer,With Assistance,-40.99088,145.72865,Braddon,,
,Yolla District High School,Yolla District High School,"School La,",YOLLA,TAS,7325,classroom D1,With Assistance,-41.12363,145.71977,Braddon,,
,Zeehan Primary School,Zeehan Primary School,"7 Belstead St,",ZEEHAN,TAS,7469,activity hall,With Assistance,-41.88794,145.33998,Braddon,,
,St Virgil's College,St Virgil's College,"195 Main Rd,",AUSTINS FERRY,TAS,7011,Edmund Rice Hall,None,-42.77386,147.25087,Clark,Yes,
,Albuera Street Primary School,Albuera Street Primary School,"Albuera St,",BATTERY POINT,TAS,7004,,None,-42.89108,147.32598,Clark,,
,St George's Church Hall,St George's Church Hall,"28 Cromwell St,",BATTERY POINT,TAS,7004,"Parish Hall, access from 30 Cromwell St",With Assistance,-42.89152,147.33268,Clark,,
,Chigwell Barn,Chigwell Barn,"10 Bucaan St,",CHIGWELL,TAS,7011,,With Assistance,-42.81133,147.24084,Clark,Yes,
,Austins Ferry Primary School,Austins Ferry Primary School,"16A Cammeray Rd,",CLAREMONT,TAS,7011,,Full,-42.78521,147.24012,Clark,Yes,
,Claremont Girl Guides Hall,Claremont Girl Guides Hall,"3 Boxhill Rd,",CLAREMONT,TAS,7011,,With Assistance,-42.79236,147.25595,Clark,Yes,
,Windermere Primary School,Windermere Primary School,"2 Cadbury Rd,",CLAREMONT,TAS,7011,hall/multipurpose room,Full,-42.79934,147.25846,Clark,Yes,
,Collinsvale Primary School,Collinsvale Primary School,"508 Collinsvale Rd,",COLLINSVALE,TAS,7012,general purpose room,With Assistance,-42.83696,147.19837,Clark,,
,Princes Street Primary School,Princes Street Primary School,"Randall St,",SANDY BAY,TAS,7005,"hall, Lord St entrance",With Assistance,-42.89913,147.31855,Clark,,
,Fern Tree Community Centre,Fern Tree Community Centre,"8 Stephenson Pl,",FERN TREE,TAS,7054,,With Assistance,-42.922346,147.260859,Clark,,
,Glenorchy Primary School,Glenorchy Primary School,"Kensington St,",GLENORCHY,TAS,7010,"gymnasium, access from Hull St",With Assistance,-42.830908,147.267619,Clark,,
,St Matthews Church,St Matthews Church,"Cnr Tolosa St and Main Rd,",GLENORCHY,TAS,7010,,With Assistance,-42.832916,147.2745434,Clark,,
,Goodwood Primary School,Goodwood Primary School,"Elmsleigh Rd,",DERWENT PARK,TAS,7009,gymnasium,Full,-42.83189,147.29333,Clark,,
,Tolosa Hall,Tolosa Hall,"148 Tolosa St,",GLENORCHY,TAS,7010,,With Assistance,-42.84555,147.26505,Clark,,
,Hobart Voting Centre,Hobart Voting Centre,"Ground Level, 144 Macquarie St,",HOBART,TAS,7000,,With Assistance,-42.885213,147.327484,Clark,,Yes
,St Peter's Hall,St Peter's Hall,"Cnr Brisbane and Harrington Sts,",HOBART,TAS,7000,St Marys College,None,-42.88159,147.32031,Clark,,
,Lenah Valley Primary School,Lenah Valley Primary School,"11 Creek Rd,",LENAH VALLEY,TAS,7008,"hall, access from Colebrook St",With Assistance,-42.861704,147.291106,Clark,,
,Southern ITF Taekwon-Do,Southern ITF Taekwon-Do,"12 Ashbolt Cres,",LUTANA,TAS,7009,Church,None,-42.8434243,147.3089939,Clark,,
,Bowen Road Primary School,Bowen Road Primary School,"35 Bowen Rd,",MOONAH,TAS,7009,gymnasium,With Assistance,-42.8472392,147.3072554,Clark,,
,Moonah Community Centre,Moonah Community Centre,"7 Gormanston Road,",MOONAH,TAS,7009,gymnasium/court,With Assistance,-42.84612742,147.2997299,Clark,,
,Moonah Primary School,Moonah Primary School,"40 Derwent Park Rd,",DERWENT PARK,TAS,7009,hall,With Assistance,-42.83843,147.29633,Clark,,
,Mt Nelson Primary School,Mt Nelson Primary School,"388 Nelson Rd,",MOUNT NELSON,TAS,7007,hall,With Assistance,-42.91353,147.32305,Clark,,
,Mt Stuart Primary School,Mt Stuart Primary School,"106 Gillon Cres,",MOUNT STUART,TAS,7000,general purpose room,None,-42.87507,147.29906,Clark,,
,Sacred Heart College,Sacred Heart College,"2 Cross St,",NEW TOWN,TAS,7008,Mackillop Court,None,-42.86136,147.30396,Clark,,
,The Friends' School,The Friends' School,"395 Argyle St,",NORTH HOBART,TAS,7000,"The Farrall Centre, access from 393 Argyle St",With Assistance,-42.865999,147.313782,Clark,,
,Hobart North Uniting Church,Hobart North Uniting Church,"Swan St,",NORTH HOBART,TAS,7000,New Town Room,With Assistance,-42.87271,147.31425,Clark,,
,Montrose Bay High School,Montrose Bay High School,"865 Brooker Ave,",ROSETTA,TAS,7010,"gymnasium, access from Foreshore Rd, Glenorchy",With Assistance,-42.819487,147.265325,Clark,,
,Harold Gregg Centre (Sandown Village),Harold Gregg Centre (Sandown Village),"1 Southerwood Dr,",SANDY BAY,TAS,7005,,With Assistance,-42.91389,147.35476,Clark,,
,St Stephen's Church Hall,St Stephen's Church Hall,"520 Sandy Bay Rd,",SANDY BAY,TAS,7005,upper hall,With Assistance,-42.9089197,147.3466316,Clark,,
,Waimea Heights Primary School,Waimea Heights Primary School,"12 Balfour Ct,",SANDY BAY,TAS,7005,general purpose room,None,-42.90873,147.33711,Clark,,
,Wellspring Anglican Church Hall,Wellspring Anglican Church Hall,"43-47 Grosvenor St,",SANDY BAY,TAS,7005,,With Assistance,-42.89916,147.3266,Clark,,
,Badminton Association Centre,Badminton Association Centre,"101 Cascade Rd,",SOUTH HOBART,TAS,7004,Social Hall - not on court,None,-42.89504,147.29921,Clark,,
,St Francis Xavier's Church Hall,St Francis Xavier's Church Hall,"34 Anglesea St,",SOUTH HOBART,TAS,7004,,With Assistance,-42.89497,147.31223,Clark,,
,Taroona Primary School,Taroona Primary School,"104 Channel Hwy,",TAROONA,TAS,7053,general purpose hall,With Assistance,-42.94294,147.35492,Clark,,
,AA Lord Village (Lawrenny Court),AA Lord Village (Lawrenny Court),"131 Hill Street,",WEST HOBART,TAS,7000,Community Hall,With Assistance,-42.87778043,147.3101353,Clark,,
,Goulburn Street Primary School,Goulburn Street Primary School,"Forest Rd,",WEST HOBART,TAS,7000,School Hall,None,-42.88763,147.31741,Clark,,
,Adventure Bay Hall,Adventure Bay Hall,"Adventure Bay Rd,",ADVENTURE BAY,TAS,7150,,None,-43.36172,147.32839,Franklin,,
,Bruny Island District School,Bruny Island District School,"15 School Rd,",ALONNAH,TAS,7150,,With Assistance,-43.31727,147.24625,Franklin,,
,Clarence High School,Clarence High School,"25 Wentworth St,",BELLERIVE,TAS,7018,ET Smith Hall - gymnasium,With Assistance,-42.87885,147.38962,Franklin,,
,Clarence Police & Community Youth Club Inc,Clarence Police & Community Youth Club Inc,"10 Scott St,",BELLERIVE,TAS,7018,hall area,With Assistance,-42.87607,147.37101,Franklin,,
,Adventure Bay Hall,Adventure Bay Hall,"Adventure Bay Rd,",ADVENTURE BAY,TAS,7150,,None,-43.36172,147.32839,Franklin,,
,Bruny Island District School,Bruny Island District School,"15 School Rd,",ALONNAH,TAS,7150,,With Assistance,-43.31727,147.24625,Franklin,,
,Cambridge Primary School,Cambridge Primary School,"976 Cambridge Rd,",CAMBRIDGE,TAS,7170,multipurpose room,With Assistance,-42.83624,147.44195,Franklin,,
,Clarendon Vale Neighbourhood Centre,Clarendon Vale Neighbourhood Centre,"63 Mockridge Rd,",CLARENDON VALE,TAS,7019,,With Assistance,-42.88748,147.443036,Franklin,,
,Cradoc Park,Cradoc Park,"8247 Channel Hwy,",CRADOC,TAS,7109,,With Assistance,-43.10599,147.03397,Franklin,,
,Cygnet Town Hall,Cygnet Town Hall,"Mary St,",CYGNET,TAS,7112,,With Assistance,-43.16204378,147.0774383,Franklin,,
,Dover District School,Dover District School,"6940 Huon Hwy,",DOVER,TAS,7117,hall,With Assistance,-43.31059,147.01313,Franklin,,
,Palais Theatre,Palais Theatre,"3388 Huon Hwy,",FRANKLIN,TAS,7113,main hall,Full,-43.089073,147.010815,Franklin,,
,Geeveston Primary School,Geeveston Primary School,"63 Arve Rd,",GEEVESTON,TAS,7116,"IT lab, via School Road",With Assistance,-43.162271,146.922048,Franklin,,
,Lindisfarne North Primary School,Lindisfarne North Primary School,"271 East Derwent Hwy,",GEILSTON BAY,TAS,7015,gymnasium,None,-42.838335,147.349976,Franklin,,
,Glen Huon Primary School,Glen Huon Primary School,"801 Glen Huon Rd,",GLEN HUON,TAS,7109,multipurpose hall,With Assistance,-43.02819,146.9624,Franklin,,
,Howden Fire Station,Howden Fire Station,"Howden Rd,",HOWDEN,TAS,7054,,With Assistance,-43.02331,147.29143,Franklin,,
,Howrah Scout Hall,Howrah Scout Hall,"Howrah Primary School, Howrah Rd,",HOWRAH,TAS,7018,,With Assistance,-42.88177,147.40387,Franklin,,
,Tranmere Hall,Tranmere Hall,"27 Tranmere Rd,",HOWRAH,TAS,7018,,With Assistance,-42.891,147.40872,Franklin,,
,Huonville Primary School,Huonville Primary School,"74 Wilmot Rd,",HUONVILLE,TAS,7109,multipurpose room,Full,-43.023734,147.046989,Franklin,,
,Judbury Community Centre,Judbury Community Centre,"1273 Glen Huon Rd,",JUDBURY,TAS,7109,,With Assistance,-42.9981,146.92811,Franklin,,
,Kettering Community Centre,Kettering Community Centre,"2963 Channel Hwy,",KETTERING,TAS,7050,,With Assistance,-43.12566,147.2467,Franklin,,
,Kingborough Council,Kingborough Council,"15 Channel Hwy,",KINGSTON,TAS,7050,Council Chambers,Full,-42.97557,147.31149,Franklin,,
,Southern Christian College,Southern Christian College,"150 Redwood Rd,",KINGSTON,TAS,7050,Lower Hall,With Assistance,-42.99049,147.3089,Franklin,,
,Kingston Beach Community Hall,Kingston Beach Community Hall,"20 Beach Rd,",KINGSTON BEACH,TAS,7050,,With Assistance,-42.98102,147.32245,Franklin,,
,Lauderdale Community Hall,Lauderdale Community Hall,"528a South Arm Rd,",LAUDERDALE,TAS,7021,,With Assistance,-42.91365,147.48638,Franklin,,
,Lindisfarne Primary School,Lindisfarne Primary School,"17 Loatta Rd,",LINDISFARNE,TAS,7015,general purpose room,With Assistance,-42.85178,147.36341,Franklin,,
,St Aidans Church Hall,St Aidans Church Hall,"54 Lincoln St,",LINDISFARNE,TAS,7015,,With Assistance,-42.846653,147.355727,Franklin,,
,Margate Hall,Margate Hall,"1744 Channel Hwy,",MARGATE,TAS,7054,,With Assistance,-43.02898,147.2628,Franklin,,
,South Channel Community Centre,South Channel Community Centre,"McDowall St,",MIDDLETON,TAS,7163,,With Assistance,-43.2313,147.25573,Franklin,,
,Montagu Bay Primary School,Montagu Bay Primary School,"10 Conara Rd,",MONTAGU BAY,TAS,7018,hall,Full,-42.86439,147.35336,Franklin,,
,Citywide Baptist Church,Citywide Baptist Church,"400 Cambridge Rd,",MORNINGTON,TAS,7018,Rosny Room,With Assistance,-42.85588,147.40216,Franklin,,
,Mountain River Memorial Hall,Mountain River Memorial Hall,"263 Mountain River Rd,",MOUNTAIN RIVER,TAS,7109,,With Assistance,-42.96129,147.10932,Franklin,,
,Ranelagh Soldiers Memorial Hall,Ranelagh Soldiers Memorial Hall,"40 Marguerite St,",RANELAGH,TAS,7109,,With Assistance,-43.00901,147.03856,Franklin,,
,Risdon Vale Primary School,Risdon Vale Primary School,"2 Heather Rd,",RISDON VALE,TAS,7016,,None,-42.81283,147.35367,Franklin,,
,Emmanuel Christian School,Emmanuel Christian School,"1 Chipmans Rd,",ROKEBY,TAS,7019,Foyer,Full,-42.900608,147.439002,Franklin,,
,Sandfly Hall,Sandfly Hall,"811 Sandfly Rd,",SANDFLY,TAS,7150,,With Assistance,-42.98497,147.19567,Franklin,,
,Sandford Hall,Sandford Hall,"949 South Arm Rd,",SANDFORD,TAS,7020,,None,-42.94002,147.49566,Franklin,,
,Ramada Resort,Ramada Resort,"78 Surf Rd,",SEVEN MILE BEACH,TAS,7170,,With Assistance,-42.85432,147.5113,Franklin,,
,Snug Primary School,Snug Primary School,"2208 Channel Hwy,",SNUG,TAS,7054,hall,With Assistance,-43.06542,147.25411,Franklin,,
,South Arm Primary School,South Arm Primary School,"32 Harmony Lane,",SOUTH ARM,TAS,7022,gymnasium,With Assistance,-43.02613,147.42013,Franklin,,
,Southport Community Centre,Southport Community Centre,"8606 Huon Hwy,",SOUTHPORT,TAS,7109,,With Assistance,-43.415763,146.961547,Franklin,,
,Warrane Primary School,Warrane Primary School,"213 Cambridge Rd,",WARRANE,TAS,7018,hall,With Assistance,-42.86044,147.38279,Franklin,,
,Woodbridge Hall,Woodbridge Hall,"3445 Channel Hwy,",WOODBRIDGE,TAS,7162,,With Assistance,-43.15999,147.23914,Franklin,,
,Avoca War Memorial Hall,Avoca War Memorial Hall,"3 Falmouth St,",AVOCA,TAS,7213,,None,-41.78247345,147.7192787,Lyons,,
,Bagdad Primary School,Bagdad Primary School,"46-48 School Rd,",BAGDAD,TAS,7030,hall,None,-42.62434,147.22359,Lyons,,
,Bicheno Beachfront,Bicheno Beachfront,"Sinclair St,",BICHENO,TAS,7215,conference room,With Assistance,-41.8744,148.29926,Lyons,,
,Bothwell Council Chambers,Bothwell Council Chambers,"Alexander St,",BOTHWELL,TAS,7030,,With Assistance,-42.38173,147.00667,Lyons,Yes,
,Bracknell Boys & Girls Club Building,Bracknell Boys & Girls Club Building,"Louisa St,",BRACKNELL,TAS,7302,adjacent to Town Hall,None,-41.65105939,146.9431686,Lyons,,
,Brighton Civic Centre,Brighton Civic Centre,"25 Green Point Rd,",BRIDGEWATER,TAS,7030,,With Assistance,-42.73918,147.24375,Lyons,Yes,
,Brighton Primary School,Brighton Primary School,"27 Downie St,",BRIGHTON,TAS,7030,"hall, off admin area",With Assistance,-42.69909,147.25845,Lyons,,
,Broadmarsh Hall,Broadmarsh Hall,"1218 Elderslie Rd,",BROADMARSH,TAS,7030,,With Assistance,-42.65628,147.12662,Lyons,,
,Campania Hall,Campania Hall,"45 Reeve St,",CAMPANIA,TAS,7026,,With Assistance,-42.66717,147.42106,Lyons,,
,Campbell Town Town Hall,Campbell Town Town Hall,"75 High St,",CAMPBELL TOWN,TAS,7210,,With Assistance,-41.927,147.49458,Lyons,,
,South East Tasmania Salvos,South East Tasmania Salvos,"225/227 Carlton River Rd,",CARLTON,TAS,7173,,None,-42.86385982,147.6391372,Lyons,,
,Carrick Public Hall,Carrick Public Hall,"29 Meander Valley Rd,",CARRICK,TAS,7291,,With Assistance,-41.53099,147.01128,Lyons,,
,Chudleigh Memorial Hall,Chudleigh Memorial Hall,"54 Sorell St,",CHUDLEIGH,TAS,7304,,With Assistance,-41.55698,146.48139,Lyons,,
,Claude Road Memorial Hall,Claude Road Memorial Hall,"787 Claude Rd,",CLAUDE ROAD,TAS,7306,,None,-41.43442,146.27413,Lyons,,
,Colebrook Memorial Hall,Colebrook Memorial Hall,"45 Richmond Street,",COLEBROOK,TAS,7027,,None,-42.53307943,147.3626647,Lyons,,
,Coles Bay Community Hall,Coles Bay Community Hall,"Harold St,",COLES BAY,TAS,7215,,None,-42.12505,148.28572,Lyons,,
,Copping Hall,Copping Hall,"69 Allanby St,",COPPING,TAS,7174,,With Assistance,-42.82049,147.80428,Lyons,,
,Cressy Community Hall,Cressy Community Hall,"Main St,",CRESSY,TAS,7302,,With Assistance,-41.68551,147.08074,Lyons,,
,Deloraine High School Hall,Deloraine High School Hall,"24 Lansdowne Pl,",DELORAINE,TAS,7304,,With Assistance,-41.52934,146.65926,Lyons,,
,Dodges Ferry Community Recreation Centre,Dodges Ferry Community Recreation Centre,"532 Old Forcett Rd,",DODGES FERRY,TAS,7173,within Dodges Ferry Primary School,With Assistance,-42.84863,147.62373,Lyons,,
,Dromedary (Millvale) Community Hall,Dromedary (Millvale) Community Hall,"14 Millvale Rd,",DROMEDARY,TAS,7030,,None,-42.72826,147.1787,Lyons,Yes,
,Dunalley Primary School,Dunalley Primary School,"20-32 Bay St,",DUNALLEY,TAS,7177,library,With Assistance,-42.88612,147.8124,Lyons,,
,Elizabeth Town Fire Station,Elizabeth Town Fire Station,"5816 Bass Hwy,",ELIZABETH TOWN,TAS,7304,,With Assistance,-41.46167,146.56389,Lyons,,
,Epping Forest Public Hall,Epping Forest Public Hall,"13515 Midland Hwy,",EPPING FOREST,TAS,7211,,With Assistance,-41.75814,147.34904,Lyons,,
,Evandale Primary School,Evandale Primary School,"5-11 Barclay St,",EVANDALE,TAS,7212,general purpose room,With Assistance,-41.56717,147.24676,Lyons,,
,Fingal Neighbourhood House,Fingal Neighbourhood House,"20 Talbot Street,",FINGAL,TAS,7214,,None,-41.63843418,147.9709241,Lyons,,
,Forcett Public Hall,Forcett Public Hall,"699 Arthur Hwy,",FORCETT,TAS,7173,,With Assistance,-42.80609,147.63178,Lyons,,
,Gagebrook Primary School,Gagebrook Primary School,"4 Tottenham Rd,",GAGEBROOK,TAS,7030,access from Ashburton St,With Assistance,-42.74903,147.27517,Lyons,Yes,
,Glenora District High School,Glenora District High School,"620 Gordon River Rd,",GLENORA,TAS,7140,"Year 7 classroom, Admin Block",None,-42.69655,146.88985,Lyons,Yes,
,Granton Memorial Hall,Granton Memorial Hall,"Lyell Hwy,",GRANTON,TAS,7030,,With Assistance,-42.74976,147.22395,Lyons,Yes,
,Hadspen Uniting Church Centre,Hadspen Uniting Church Centre,"47 Main St,",HADSPEN,TAS,7290,,With Assistance,-41.50623,147.06347,Lyons,,
,Hagley Farm Primary School,Hagley Farm Primary School,"2508 Meander Valley Rd,",HAGLEY,TAS,7292,School Hall at front of school,With Assistance,-41.5247212,146.9019556,Lyons,,
,Kempton Council Chambers,Kempton Council Chambers,"Main St,",KEMPTON,TAS,7030,,With Assistance,-42.53226,147.20088,Lyons,,
,Lachlan Community Hall,Lachlan Community Hall,"511 Lachlan Rd,",LACHLAN,TAS,7140,,With Assistance,-42.83039,147.0426,Lyons,Yes,
,Longford War Memorial Hall,Longford War Memorial Hall,"Wellington St,",LONGFORD,TAS,7301,,With Assistance,-41.5934059,147.1220878,Lyons,,
,Lower Barrington Public Hall,Lower Barrington Public Hall,"1027 Sheffield Rd,",LOWER BARRINGTON,TAS,7306,,None,-41.29085,146.29118,Lyons,,
,Magra CWA Building,Magra CWA Building,"Back River Rd,",MAGRA,TAS,7140,cnr of Back River and Saddle Rds,With Assistance,-42.73504,147.07053,Lyons,Yes,
,Meander Memorial Hall,Meander Memorial Hall,"124 Main Rd,",MEANDER,TAS,7304,,Full,-41.652762,146.609387,Lyons,,
,Midway Point Community Hall,Midway Point Community Hall,"Raynors Rd,",MIDWAY POINT,TAS,7171,,With Assistance,-42.79979,147.53265,Lyons,,
,Miena Community Centre,Miena Community Centre,"55-57 Cider Gum Rd,",MIENA,TAS,7030,,With Assistance,-41.9937,146.70828,Lyons,Yes,
,Mole Creek Primary School,Mole Creek Primary School,"4 Caveside Rd,",MOLE CREEK,TAS,7304,,With Assistance,-41.5572934,146.4077532,Lyons,,
,Molesworth Community Hall,Molesworth Community Hall,"560 Molesworth Rd,",MOLESWORTH,TAS,7140,,With Assistance,-42.8043361,147.1602846,Lyons,Yes,
,Fairview Primary School,Fairview Primary School,"211 Back River Rd,",NEW NORFOLK,TAS,7140,,Full,-42.774295,147.050038,Lyons,Yes,
,New Norfolk Primary School,New Norfolk Primary School,"8 Pioneer Ave,",NEW NORFOLK,TAS,7140,also via Church St,With Assistance,-42.779,147.06366,Lyons,Yes,
,Tasman Civic Centre,Tasman Civic Centre,"21 Clarke St,",NUBEENA,TAS,7184,,With Assistance,-43.09998,147.74416,Lyons,,
,Oatlands Council Chambers,Oatlands Council Chambers,"71 High St,",OATLANDS,TAS,7120,Court Room,With Assistance,-42.3,147.37201,Lyons,,
,Old Beach Community Centre,Old Beach Community Centre,"Jetty Rd,",OLD BEACH,TAS,7017,,With Assistance,-42.7743122,147.2661143,Lyons,,
,Orford Primary School,Orford Primary School,"35 Charles St,",ORFORD,TAS,7190,,Full,-42.563525,147.873845,Lyons,,
,Ouse Online Access Centre,Ouse Online Access Centre,"6947 Lyell Hwy,",OUSE,TAS,7140,,With Assistance,-42.48523,146.71076,Lyons,Yes,
,Perth Community Centre,Perth Community Centre,"173 Fairtlough St,",PERTH,TAS,7300,hall and function room,With Assistance,-41.57255,147.17365,Lyons,,
,Pontville Old Council Chambers,Pontville Old Council Chambers,"262 Brighton Rd,",PONTVILLE,TAS,7030,,With Assistance,-42.6838,147.2655,Lyons,,
,Primrose Sands Community Hall,Primrose Sands Community Hall,"570 Primrose Sands Rd,",PRIMROSE SANDS,TAS,7173,,With Assistance,-42.89213,147.67292,Lyons,,
,Residential Retirement Village Clubrooms,Residential Retirement Village Clubrooms,"12 Casino Rise,",PROSPECT VALE,TAS,7250,,With Assistance,-41.47909,147.10972,Lyons,,
,Sheffield School (Railton Campus),Sheffield School (Railton Campus),"94 Foster St,",RAILTON,TAS,7305,general purpose hall,With Assistance,-41.3529486,146.4145571,Lyons,,
,Richmond Primary School,Richmond Primary School,"Commercial Rd,",RICHMOND,TAS,7025,School Hall,With Assistance,-42.73937,147.43748,Lyons,,
,Ross Town Hall,Ross Town Hall,"12 Bridge St,",ROSS,TAS,7209,,None,-42.03136,147.49244,Lyons,,
,Scamander Sports Complex,Scamander Sports Complex,"Coach Rd,",SCAMANDER,TAS,7215,dining room,None,-41.45419039,148.2592652,Lyons,,
,Sheffield School,Sheffield School,"12 Henry St,",SHEFFIELD,TAS,7306,music room - related arts building,With Assistance,-41.38166,146.3289,Lyons,,
,Sorell Memorial Hall,Sorell Memorial Hall,"49 Cole St,",SORELL,TAS,7172,,With Assistance,-42.7809503,147.5606303,Lyons,,
,St Helens Memorial Hall,St Helens Memorial Hall,"Cecilia St,",ST HELENS,TAS,7216,,With Assistance,-41.32219509,148.2494296,Lyons,,
,St Marys Community Hall,St Marys Community Hall,"23 Main St,",ST MARYS,TAS,7215,supper room,With Assistance,-41.57939,148.18508,Lyons,,
,Swansea Town Hall,Swansea Town Hall,"12 Franklin St,",SWANSEA,TAS,7190,,With Assistance,-42.124593,148.0770145,Lyons,,
,Tasman Community Centre,Tasman Community Centre,"33 Amy St,",TARANNA,TAS,7180,via Gourlay Rd,With Assistance,-43.03802462,147.866748,Lyons,,
,Tea Tree Community Hall,Tea Tree Community Hall,"Briar Banks Rd,",TEA TREE,TAS,7017,,With Assistance,-42.69026,147.31894,Lyons,,
,Triabunna Hall,Triabunna Hall,"3 Vicary St,",TRIABUNNA,TAS,7190,,With Assistance,-42.508166,147.909631,Lyons,,
,Tunnack Public Hall,Tunnack Public Hall,"Tunnack Rd,",TUNNACK,TAS,7120,,With Assistance,-42.45592,147.46179,Lyons,,
,Westbury Town Hall,Westbury Town Hall,"26 Lyall St,",WESTBURY,TAS,7303,supper room,With Assistance,-41.528113,146.831023,Lyons,,
,Westerway Primary School,Westerway Primary School,"1619 Gordon River Rd,",WESTERWAY,TAS,7140,,With Assistance,-42.67788,146.78779,Lyons,Yes,
,Wilmot Primary School,Wilmot Primary School,"61 Main Rd,",WILMOT,TAS,7310,music room,With Assistance,-41.387,146.17606,Lyons,,